<?xml version="1.0" encoding="UTF-8"?>
<!-- Generated by FME 2017.1.2.0 (Build 17722) -->
<kml xmlns:xsd="http://www.w3.org/2001/XMLSchema" xmlns:gx="http://www.google.com/kml/ext/2.2" xmlns:atom="http://www.w3.org/2005/Atom" xmlns="http://www.opengis.net/kml/2.2">
<Document>
<name>AQUATICSG</name>
<visibility>1</visibility>
<Schema name="AQUATICSG" id="kml_schema_ft_AQUATICSG">
<SimpleField type="xsd:double" name="LANDYADDRESSPOINT">
<displayName>LANDYADDRESSPOINT</displayName>
</SimpleField>
<SimpleField type="xsd:double" name="LANDXADDRESSPOINT">
<displayName>LANDXADDRESSPOINT</displayName>
</SimpleField>
<SimpleField type="xsd:int" name="ADDRESSPOSTALCODE">
<displayName>ADDRESSPOSTALCODE</displayName>
</SimpleField>
<SimpleField type="xsd:string" name="PHOTOURL">
<displayName>PHOTOURL</displayName>
</SimpleField>
<SimpleField type="xsd:string" name="HYPERLINK">
<displayName>HYPERLINK</displayName>
</SimpleField>
<SimpleField type="xsd:string" name="DESCRIPTION">
<displayName>DESCRIPTION</displayName>
</SimpleField>
<SimpleField type="xsd:string" name="ADDRESSUNITNUMBER">
<displayName>ADDRESSUNITNUMBER</displayName>
</SimpleField>
<SimpleField type="xsd:string" name="ADDRESSSTREETNAME">
<displayName>ADDRESSSTREETNAME</displayName>
</SimpleField>
<SimpleField type="xsd:string" name="ADDRESSFLOORNUMBER">
<displayName>ADDRESSFLOORNUMBER</displayName>
</SimpleField>
<SimpleField type="xsd:string" name="ADDRESSBUILDINGNAME">
<displayName>ADDRESSBUILDINGNAME</displayName>
</SimpleField>
<SimpleField type="xsd:string" name="ADDRESSBLOCKHOUSENUMBER">
<displayName>ADDRESSBLOCKHOUSENUMBER</displayName>
</SimpleField>
<SimpleField type="xsd:string" name="INC_CRC">
<displayName>INC_CRC</displayName>
</SimpleField>
<SimpleField type="xsd:string" name="FMEL_UPD_D">
<displayName>FMEL_UPD_D</displayName>
</SimpleField>
<SimpleField type="xsd:string" name="NAME">
<displayName>NAME</displayName>
</SimpleField>
</Schema>
<Folder id="kml_ft_AQUATICSG">
<name>AQUATICSG</name>
<Placemark id="kml_1">
<name>kml_1</name>
<snippet> </snippet>
<description><![CDATA[<center><table><tr><th colspan='2' align='center'><em>Attributes</em></th></tr><tr bgcolor="#E3E3F3">
<th>LANDYADDRESSPOINT</th>
<td>34746.1713</td>
</tr><tr bgcolor="">
<th>LANDXADDRESSPOINT</th>
<td>29869.1974</td>
</tr><tr bgcolor="#E3E3F3">
<th>ADDRESSPOSTALCODE</th>
<td>319392</td>
</tr><tr bgcolor="">
<th>PHOTOURL</th>
<td></td>
</tr><tr bgcolor="#E3E3F3">
<th>HYPERLINK</th>
<td>http://www.icanbook.com.sg/</td>
</tr><tr bgcolor="">
<th>DESCRIPTION</th>
<td>Facilities: 
1 Teaching Pool, 1 Wading Pool, 1 Training Pool 
Operating Hours: 
8.00am - 9.30pm (Thursd</td>
</tr><tr bgcolor="#E3E3F3">
<th>ADDRESSUNITNUMBER</th>
<td>0</td>
</tr><tr bgcolor="">
<th>ADDRESSSTREETNAME</th>
<td>Toa Payoh Lor. 6</td>
</tr><tr bgcolor="#E3E3F3">
<th>ADDRESSFLOORNUMBER</th>
<td>1</td>
</tr><tr bgcolor="">
<th>ADDRESSBUILDINGNAME</th>
<td></td>
</tr><tr bgcolor="#E3E3F3">
<th>ADDRESSBLOCKHOUSENUMBER</th>
<td>301</td>
</tr><tr bgcolor="">
<th>INC_CRC</th>
<td>098A666C39A46950</td>
</tr><tr bgcolor="#E3E3F3">
<th>FMEL_UPD_D</th>
<td>20140417085527</td>
</tr><tr bgcolor="">
<th>NAME</th>
<td>Toa Payoh Sports and Recreation Centre</td>
</tr></table></center>]]></description>
<ExtendedData>
<SchemaData schemaUrl="#kml_schema_ft_AQUATICSG">
<SimpleData name="LANDYADDRESSPOINT">34746.1713</SimpleData>
<SimpleData name="LANDXADDRESSPOINT">29869.1974</SimpleData>
<SimpleData name="ADDRESSPOSTALCODE">319392</SimpleData>
<SimpleData name="HYPERLINK">http://www.icanbook.com.sg/</SimpleData>
<SimpleData name="DESCRIPTION">Facilities: 
1 Teaching Pool, 1 Wading Pool, 1 Training Pool 
Operating Hours: 
8.00am - 9.30pm (Thursd</SimpleData>
<SimpleData name="ADDRESSUNITNUMBER">0</SimpleData>
<SimpleData name="ADDRESSSTREETNAME">Toa Payoh Lor. 6</SimpleData>
<SimpleData name="ADDRESSFLOORNUMBER">1</SimpleData>
<SimpleData name="ADDRESSBLOCKHOUSENUMBER">301</SimpleData>
<SimpleData name="INC_CRC">098A666C39A46950</SimpleData>
<SimpleData name="FMEL_UPD_D">20140417085527</SimpleData>
<SimpleData name="NAME">Toa Payoh Sports and Recreation Centre</SimpleData>
</SchemaData>
</ExtendedData>
<Point>
<coordinates>103.850114362781,1.33050649487197,0.0</coordinates>
</Point>
</Placemark>
<Placemark id="kml_2">
<name>kml_2</name>
<snippet> </snippet>
<description><![CDATA[<center><table><tr><th colspan='2' align='center'><em>Attributes</em></th></tr><tr bgcolor="#E3E3F3">
<th>LANDYADDRESSPOINT</th>
<td>32670.07</td>
</tr><tr bgcolor="">
<th>LANDXADDRESSPOINT</th>
<td>41233.04</td>
</tr><tr bgcolor="#E3E3F3">
<th>ADDRESSPOSTALCODE</th>
<td>468961</td>
</tr><tr bgcolor="">
<th>PHOTOURL</th>
<td></td>
</tr><tr bgcolor="#E3E3F3">
<th>HYPERLINK</th>
<td>http://www.water-venture.org.sg/</td>
</tr><tr bgcolor="">
<th>DESCRIPTION</th>
<td>Water-Venture</td>
</tr><tr bgcolor="#E3E3F3">
<th>ADDRESSUNITNUMBER</th>
<td>0</td>
</tr><tr bgcolor="">
<th>ADDRESSSTREETNAME</th>
<td>East Coast Parkway</td>
</tr><tr bgcolor="#E3E3F3">
<th>ADDRESSFLOORNUMBER</th>
<td>1</td>
</tr><tr bgcolor="">
<th>ADDRESSBUILDINGNAME</th>
<td></td>
</tr><tr bgcolor="#E3E3F3">
<th>ADDRESSBLOCKHOUSENUMBER</th>
<td>1390</td>
</tr><tr bgcolor="">
<th>INC_CRC</th>
<td>21A17217DAEDC72C</td>
</tr><tr bgcolor="#E3E3F3">
<th>FMEL_UPD_D</th>
<td>20140417085527</td>
</tr><tr bgcolor="">
<th>NAME</th>
<td>Water-Venture (East Coast)</td>
</tr></table></center>]]></description>
<ExtendedData>
<SchemaData schemaUrl="#kml_schema_ft_AQUATICSG">
<SimpleData name="LANDYADDRESSPOINT">32670.07</SimpleData>
<SimpleData name="LANDXADDRESSPOINT">41233.04</SimpleData>
<SimpleData name="ADDRESSPOSTALCODE">468961</SimpleData>
<SimpleData name="HYPERLINK">http://www.water-venture.org.sg/</SimpleData>
<SimpleData name="DESCRIPTION">Water-Venture</SimpleData>
<SimpleData name="ADDRESSUNITNUMBER">0</SimpleData>
<SimpleData name="ADDRESSSTREETNAME">East Coast Parkway</SimpleData>
<SimpleData name="ADDRESSFLOORNUMBER">1</SimpleData>
<SimpleData name="ADDRESSBLOCKHOUSENUMBER">1390</SimpleData>
<SimpleData name="INC_CRC">21A17217DAEDC72C</SimpleData>
<SimpleData name="FMEL_UPD_D">20140417085527</SimpleData>
<SimpleData name="NAME">Water-Venture (East Coast)</SimpleData>
</SchemaData>
</ExtendedData>
<Point>
<coordinates>103.952223865532,1.31172818403013,0.0</coordinates>
</Point>
</Placemark>
<Placemark id="kml_3">
<name>kml_3</name>
<snippet> </snippet>
<description><![CDATA[<center><table><tr><th colspan='2' align='center'><em>Attributes</em></th></tr><tr bgcolor="#E3E3F3">
<th>LANDYADDRESSPOINT</th>
<td>37349.0263</td>
</tr><tr bgcolor="">
<th>LANDXADDRESSPOINT</th>
<td>29878.9896</td>
</tr><tr bgcolor="#E3E3F3">
<th>ADDRESSPOSTALCODE</th>
<td>579778</td>
</tr><tr bgcolor="">
<th>PHOTOURL</th>
<td></td>
</tr><tr bgcolor="#E3E3F3">
<th>HYPERLINK</th>
<td>http://www.icanbook.com.sg/</td>
</tr><tr bgcolor="">
<th>DESCRIPTION</th>
<td>Facilities: 
1 Competition Pool, 1 Teaching pool, 1 Wading pool 
Operating Hours: 
8.00am - 9.30pm (Thu</td>
</tr><tr bgcolor="#E3E3F3">
<th>ADDRESSUNITNUMBER</th>
<td>0</td>
</tr><tr bgcolor="">
<th>ADDRESSSTREETNAME</th>
<td>Bishan Street 4</td>
</tr><tr bgcolor="#E3E3F3">
<th>ADDRESSFLOORNUMBER</th>
<td>1</td>
</tr><tr bgcolor="">
<th>ADDRESSBUILDINGNAME</th>
<td></td>
</tr><tr bgcolor="#E3E3F3">
<th>ADDRESSBLOCKHOUSENUMBER</th>
<td>1</td>
</tr><tr bgcolor="">
<th>INC_CRC</th>
<td>63EA27062A974DE5</td>
</tr><tr bgcolor="#E3E3F3">
<th>FMEL_UPD_D</th>
<td>20140417085527</td>
</tr><tr bgcolor="">
<th>NAME</th>
<td>Bishan Sports and Recreation Centre</td>
</tr></table></center>]]></description>
<ExtendedData>
<SchemaData schemaUrl="#kml_schema_ft_AQUATICSG">
<SimpleData name="LANDYADDRESSPOINT">37349.0263</SimpleData>
<SimpleData name="LANDXADDRESSPOINT">29878.9896</SimpleData>
<SimpleData name="ADDRESSPOSTALCODE">579778</SimpleData>
<SimpleData name="HYPERLINK">http://www.icanbook.com.sg/</SimpleData>
<SimpleData name="DESCRIPTION">Facilities: 
1 Competition Pool, 1 Teaching pool, 1 Wading pool 
Operating Hours: 
8.00am - 9.30pm (Thu</SimpleData>
<SimpleData name="ADDRESSUNITNUMBER">0</SimpleData>
<SimpleData name="ADDRESSSTREETNAME">Bishan Street 4</SimpleData>
<SimpleData name="ADDRESSFLOORNUMBER">1</SimpleData>
<SimpleData name="ADDRESSBLOCKHOUSENUMBER">1</SimpleData>
<SimpleData name="INC_CRC">63EA27062A974DE5</SimpleData>
<SimpleData name="FMEL_UPD_D">20140417085527</SimpleData>
<SimpleData name="NAME">Bishan Sports and Recreation Centre</SimpleData>
</SchemaData>
</ExtendedData>
<Point>
<coordinates>103.850202512475,1.35404578968511,0.0</coordinates>
</Point>
</Placemark>
<Placemark id="kml_4">
<name>kml_4</name>
<snippet> </snippet>
<description><![CDATA[<center><table><tr><th colspan='2' align='center'><em>Attributes</em></th></tr><tr bgcolor="#E3E3F3">
<th>LANDYADDRESSPOINT</th>
<td>35621.4277</td>
</tr><tr bgcolor="">
<th>LANDXADDRESSPOINT</th>
<td>12469.5954</td>
</tr><tr bgcolor="#E3E3F3">
<th>ADDRESSPOSTALCODE</th>
<td>648965</td>
</tr><tr bgcolor="">
<th>PHOTOURL</th>
<td></td>
</tr><tr bgcolor="#E3E3F3">
<th>HYPERLINK</th>
<td>http://www.icanbook.com.sg/</td>
</tr><tr bgcolor="">
<th>DESCRIPTION</th>
<td>Facilities: 
1 Sheltered Competition Pool, 1 Teaching Pool, 1 Lazy River, 1 Jacuzzi, 1 Kiddy Pool, 1 Sl</td>
</tr><tr bgcolor="#E3E3F3">
<th>ADDRESSUNITNUMBER</th>
<td>0</td>
</tr><tr bgcolor="">
<th>ADDRESSSTREETNAME</th>
<td>Jurong West St 93</td>
</tr><tr bgcolor="#E3E3F3">
<th>ADDRESSFLOORNUMBER</th>
<td>1</td>
</tr><tr bgcolor="">
<th>ADDRESSBUILDINGNAME</th>
<td></td>
</tr><tr bgcolor="#E3E3F3">
<th>ADDRESSBLOCKHOUSENUMBER</th>
<td>20</td>
</tr><tr bgcolor="">
<th>INC_CRC</th>
<td>2EE2D43BFC6CBF7E</td>
</tr><tr bgcolor="#E3E3F3">
<th>FMEL_UPD_D</th>
<td>20140417085527</td>
</tr><tr bgcolor="">
<th>NAME</th>
<td>Jurong West Sports and Recreation Centre</td>
</tr></table></center>]]></description>
<ExtendedData>
<SchemaData schemaUrl="#kml_schema_ft_AQUATICSG">
<SimpleData name="LANDYADDRESSPOINT">35621.4277</SimpleData>
<SimpleData name="LANDXADDRESSPOINT">12469.5954</SimpleData>
<SimpleData name="ADDRESSPOSTALCODE">648965</SimpleData>
<SimpleData name="HYPERLINK">http://www.icanbook.com.sg/</SimpleData>
<SimpleData name="DESCRIPTION">Facilities: 
1 Sheltered Competition Pool, 1 Teaching Pool, 1 Lazy River, 1 Jacuzzi, 1 Kiddy Pool, 1 Sl</SimpleData>
<SimpleData name="ADDRESSUNITNUMBER">0</SimpleData>
<SimpleData name="ADDRESSSTREETNAME">Jurong West St 93</SimpleData>
<SimpleData name="ADDRESSFLOORNUMBER">1</SimpleData>
<SimpleData name="ADDRESSBLOCKHOUSENUMBER">20</SimpleData>
<SimpleData name="INC_CRC">2EE2D43BFC6CBF7E</SimpleData>
<SimpleData name="FMEL_UPD_D">20140417085527</SimpleData>
<SimpleData name="NAME">Jurong West Sports and Recreation Centre</SimpleData>
</SchemaData>
</ExtendedData>
<Point>
<coordinates>103.693768901292,1.3384180649277,0.0</coordinates>
</Point>
</Placemark>
<Placemark id="kml_5">
<name>kml_5</name>
<snippet> </snippet>
<description><![CDATA[<center><table><tr><th colspan='2' align='center'><em>Attributes</em></th></tr><tr bgcolor="#E3E3F3">
<th>LANDYADDRESSPOINT</th>
<td>33883.1678</td>
</tr><tr bgcolor="">
<th>LANDXADDRESSPOINT</th>
<td>32390.1634</td>
</tr><tr bgcolor="#E3E3F3">
<th>ADDRESSPOSTALCODE</th>
<td>339627</td>
</tr><tr bgcolor="">
<th>PHOTOURL</th>
<td></td>
</tr><tr bgcolor="#E3E3F3">
<th>HYPERLINK</th>
<td></td>
</tr><tr bgcolor="">
<th>DESCRIPTION</th>
<td>Facilities: 
1 Competition Pool, 1 Teaching pool, 1 Wading pool 
Operating Hours: 
8.00am - 9.30pm (Thu</td>
</tr><tr bgcolor="#E3E3F3">
<th>ADDRESSUNITNUMBER</th>
<td>0</td>
</tr><tr bgcolor="">
<th>ADDRESSSTREETNAME</th>
<td>Geylang Bahru Lane</td>
</tr><tr bgcolor="#E3E3F3">
<th>ADDRESSFLOORNUMBER</th>
<td>1</td>
</tr><tr bgcolor="">
<th>ADDRESSBUILDINGNAME</th>
<td></td>
</tr><tr bgcolor="#E3E3F3">
<th>ADDRESSBLOCKHOUSENUMBER</th>
<td>21</td>
</tr><tr bgcolor="">
<th>INC_CRC</th>
<td>2C8187B32894D19D</td>
</tr><tr bgcolor="#E3E3F3">
<th>FMEL_UPD_D</th>
<td>20140417085527</td>
</tr><tr bgcolor="">
<th>NAME</th>
<td>Kallang Basin Swimming Complex</td>
</tr></table></center>]]></description>
<ExtendedData>
<SchemaData schemaUrl="#kml_schema_ft_AQUATICSG">
<SimpleData name="LANDYADDRESSPOINT">33883.1678</SimpleData>
<SimpleData name="LANDXADDRESSPOINT">32390.1634</SimpleData>
<SimpleData name="ADDRESSPOSTALCODE">339627</SimpleData>
<SimpleData name="DESCRIPTION">Facilities: 
1 Competition Pool, 1 Teaching pool, 1 Wading pool 
Operating Hours: 
8.00am - 9.30pm (Thu</SimpleData>
<SimpleData name="ADDRESSUNITNUMBER">0</SimpleData>
<SimpleData name="ADDRESSSTREETNAME">Geylang Bahru Lane</SimpleData>
<SimpleData name="ADDRESSFLOORNUMBER">1</SimpleData>
<SimpleData name="ADDRESSBLOCKHOUSENUMBER">21</SimpleData>
<SimpleData name="INC_CRC">2C8187B32894D19D</SimpleData>
<SimpleData name="FMEL_UPD_D">20140417085527</SimpleData>
<SimpleData name="NAME">Kallang Basin Swimming Complex</SimpleData>
</SchemaData>
</ExtendedData>
<Point>
<coordinates>103.872766525674,1.32270153880671,0.0</coordinates>
</Point>
</Placemark>
<Placemark id="kml_6">
<name>kml_6</name>
<snippet> </snippet>
<description><![CDATA[<center><table><tr><th colspan='2' align='center'><em>Attributes</em></th></tr><tr bgcolor="#E3E3F3">
<th>LANDYADDRESSPOINT</th>
<td>31605.8059</td>
</tr><tr bgcolor="">
<th>LANDXADDRESSPOINT</th>
<td>33872.0788</td>
</tr><tr bgcolor="#E3E3F3">
<th>ADDRESSPOSTALCODE</th>
<td>436752</td>
</tr><tr bgcolor="">
<th>PHOTOURL</th>
<td></td>
</tr><tr bgcolor="#E3E3F3">
<th>HYPERLINK</th>
<td></td>
</tr><tr bgcolor="">
<th>DESCRIPTION</th>
<td>Facilities: 
1 Competition Pool, 1 Teaching pool, 1 Wading pool 
Operating Hours: 
8.00am - 9.30pm (Thu</td>
</tr><tr bgcolor="#E3E3F3">
<th>ADDRESSUNITNUMBER</th>
<td>0</td>
</tr><tr bgcolor="">
<th>ADDRESSSTREETNAME</th>
<td>Wilkinson Road</td>
</tr><tr bgcolor="#E3E3F3">
<th>ADDRESSFLOORNUMBER</th>
<td>1</td>
</tr><tr bgcolor="">
<th>ADDRESSBUILDINGNAME</th>
<td></td>
</tr><tr bgcolor="#E3E3F3">
<th>ADDRESSBLOCKHOUSENUMBER</th>
<td>111</td>
</tr><tr bgcolor="">
<th>INC_CRC</th>
<td>D641056C6DE91FF7</td>
</tr><tr bgcolor="#E3E3F3">
<th>FMEL_UPD_D</th>
<td>20140417085527</td>
</tr><tr bgcolor="">
<th>NAME</th>
<td>Katong Swimming Complex</td>
</tr></table></center>]]></description>
<ExtendedData>
<SchemaData schemaUrl="#kml_schema_ft_AQUATICSG">
<SimpleData name="LANDYADDRESSPOINT">31605.8059</SimpleData>
<SimpleData name="LANDXADDRESSPOINT">33872.0788</SimpleData>
<SimpleData name="ADDRESSPOSTALCODE">436752</SimpleData>
<SimpleData name="DESCRIPTION">Facilities: 
1 Competition Pool, 1 Teaching pool, 1 Wading pool 
Operating Hours: 
8.00am - 9.30pm (Thu</SimpleData>
<SimpleData name="ADDRESSUNITNUMBER">0</SimpleData>
<SimpleData name="ADDRESSSTREETNAME">Wilkinson Road</SimpleData>
<SimpleData name="ADDRESSFLOORNUMBER">1</SimpleData>
<SimpleData name="ADDRESSBLOCKHOUSENUMBER">111</SimpleData>
<SimpleData name="INC_CRC">D641056C6DE91FF7</SimpleData>
<SimpleData name="FMEL_UPD_D">20140417085527</SimpleData>
<SimpleData name="NAME">Katong Swimming Complex</SimpleData>
</SchemaData>
</ExtendedData>
<Point>
<coordinates>103.886081886713,1.3021056413169,0.0</coordinates>
</Point>
</Placemark>
<Placemark id="kml_7">
<name>kml_7</name>
<snippet> </snippet>
<description><![CDATA[<center><table><tr><th colspan='2' align='center'><em>Attributes</em></th></tr><tr bgcolor="#E3E3F3">
<th>LANDYADDRESSPOINT</th>
<td>31018.8274</td>
</tr><tr bgcolor="">
<th>LANDXADDRESSPOINT</th>
<td>24557.7723</td>
</tr><tr bgcolor="#E3E3F3">
<th>ADDRESSPOSTALCODE</th>
<td>148948</td>
</tr><tr bgcolor="">
<th>PHOTOURL</th>
<td></td>
</tr><tr bgcolor="#E3E3F3">
<th>HYPERLINK</th>
<td></td>
</tr><tr bgcolor="">
<th>DESCRIPTION</th>
<td>Facilities: 
1 Competition Pool, 1 Teaching pool, 1 Wading pool, 1 Diving Pool 
Operating Hours: 
8.00a</td>
</tr><tr bgcolor="#E3E3F3">
<th>ADDRESSUNITNUMBER</th>
<td>0</td>
</tr><tr bgcolor="">
<th>ADDRESSSTREETNAME</th>
<td>Stirling Road</td>
</tr><tr bgcolor="#E3E3F3">
<th>ADDRESSFLOORNUMBER</th>
<td>1</td>
</tr><tr bgcolor="">
<th>ADDRESSBUILDINGNAME</th>
<td></td>
</tr><tr bgcolor="#E3E3F3">
<th>ADDRESSBLOCKHOUSENUMBER</th>
<td>473</td>
</tr><tr bgcolor="">
<th>INC_CRC</th>
<td>D98B8B1480C5795F</td>
</tr><tr bgcolor="#E3E3F3">
<th>FMEL_UPD_D</th>
<td>20140417085527</td>
</tr><tr bgcolor="">
<th>NAME</th>
<td>Queenstown Sports & Recreation Centre</td>
</tr></table></center>]]></description>
<ExtendedData>
<SchemaData schemaUrl="#kml_schema_ft_AQUATICSG">
<SimpleData name="LANDYADDRESSPOINT">31018.8274</SimpleData>
<SimpleData name="LANDXADDRESSPOINT">24557.7723</SimpleData>
<SimpleData name="ADDRESSPOSTALCODE">148948</SimpleData>
<SimpleData name="DESCRIPTION">Facilities: 
1 Competition Pool, 1 Teaching pool, 1 Wading pool, 1 Diving Pool 
Operating Hours: 
8.00a</SimpleData>
<SimpleData name="ADDRESSUNITNUMBER">0</SimpleData>
<SimpleData name="ADDRESSSTREETNAME">Stirling Road</SimpleData>
<SimpleData name="ADDRESSFLOORNUMBER">1</SimpleData>
<SimpleData name="ADDRESSBLOCKHOUSENUMBER">473</SimpleData>
<SimpleData name="INC_CRC">D98B8B1480C5795F</SimpleData>
<SimpleData name="FMEL_UPD_D">20140417085527</SimpleData>
<SimpleData name="NAME">Queenstown Sports &amp; Recreation Centre</SimpleData>
</SchemaData>
</ExtendedData>
<Point>
<coordinates>103.802388654322,1.29679757933631,0.0</coordinates>
</Point>
</Placemark>
<Placemark id="kml_8">
<name>kml_8</name>
<snippet> </snippet>
<description><![CDATA[<center><table><tr><th colspan='2' align='center'><em>Attributes</em></th></tr><tr bgcolor="#E3E3F3">
<th>LANDYADDRESSPOINT</th>
<td>41932.5033</td>
</tr><tr bgcolor="">
<th>LANDXADDRESSPOINT</th>
<td>33839.289600000004</td>
</tr><tr bgcolor="#E3E3F3">
<th>ADDRESSPOSTALCODE</th>
<td>544964</td>
</tr><tr bgcolor="">
<th>PHOTOURL</th>
<td></td>
</tr><tr bgcolor="#E3E3F3">
<th>HYPERLINK</th>
<td>http://www.icanbook.com.sg/</td>
</tr><tr bgcolor="">
<th>DESCRIPTION</th>
<td>Facilities: 
1 Competition Pool, 2 Teaching Pool, 1 Fun Pool, 1 Jacuzzi, 8 Slides 
Operating Hours: 
8.</td>
</tr><tr bgcolor="#E3E3F3">
<th>ADDRESSUNITNUMBER</th>
<td>0</td>
</tr><tr bgcolor="">
<th>ADDRESSSTREETNAME</th>
<td>Anchorvale Road</td>
</tr><tr bgcolor="#E3E3F3">
<th>ADDRESSFLOORNUMBER</th>
<td>1</td>
</tr><tr bgcolor="">
<th>ADDRESSBUILDINGNAME</th>
<td></td>
</tr><tr bgcolor="#E3E3F3">
<th>ADDRESSBLOCKHOUSENUMBER</th>
<td>57</td>
</tr><tr bgcolor="">
<th>INC_CRC</th>
<td>5B3E9E8A34AEEB70</td>
</tr><tr bgcolor="#E3E3F3">
<th>FMEL_UPD_D</th>
<td>20140417085527</td>
</tr><tr bgcolor="">
<th>NAME</th>
<td>Sengkang Sports and Recreation Centre</td>
</tr></table></center>]]></description>
<ExtendedData>
<SchemaData schemaUrl="#kml_schema_ft_AQUATICSG">
<SimpleData name="LANDYADDRESSPOINT">41932.5033</SimpleData>
<SimpleData name="LANDXADDRESSPOINT">33839.289600000004</SimpleData>
<SimpleData name="ADDRESSPOSTALCODE">544964</SimpleData>
<SimpleData name="HYPERLINK">http://www.icanbook.com.sg/</SimpleData>
<SimpleData name="DESCRIPTION">Facilities: 
1 Competition Pool, 2 Teaching Pool, 1 Fun Pool, 1 Jacuzzi, 8 Slides 
Operating Hours: 
8.</SimpleData>
<SimpleData name="ADDRESSUNITNUMBER">0</SimpleData>
<SimpleData name="ADDRESSSTREETNAME">Anchorvale Road</SimpleData>
<SimpleData name="ADDRESSFLOORNUMBER">1</SimpleData>
<SimpleData name="ADDRESSBLOCKHOUSENUMBER">57</SimpleData>
<SimpleData name="INC_CRC">5B3E9E8A34AEEB70</SimpleData>
<SimpleData name="FMEL_UPD_D">20140417085527</SimpleData>
<SimpleData name="NAME">Sengkang Sports and Recreation Centre</SimpleData>
</SchemaData>
</ExtendedData>
<Point>
<coordinates>103.885789260543,1.39549658755664,0.0</coordinates>
</Point>
</Placemark>
<Placemark id="kml_9">
<name>kml_9</name>
<snippet> </snippet>
<description><![CDATA[<center><table><tr><th colspan='2' align='center'><em>Attributes</em></th></tr><tr bgcolor="#E3E3F3">
<th>LANDYADDRESSPOINT</th>
<td>37680.0308</td>
</tr><tr bgcolor="">
<th>LANDXADDRESSPOINT</th>
<td>32593.4639</td>
</tr><tr bgcolor="#E3E3F3">
<th>ADDRESSPOSTALCODE</th>
<td>545552</td>
</tr><tr bgcolor="">
<th>PHOTOURL</th>
<td></td>
</tr><tr bgcolor="#E3E3F3">
<th>HYPERLINK</th>
<td>http://www.icanbook.com.sg/</td>
</tr><tr bgcolor="">
<th>DESCRIPTION</th>
<td>Facilities: 
1 Competition Pool, 1 Wading Pool 
Operating Hours: 
8.00am - 9.30pm (Thursday to Tuesday </td>
</tr><tr bgcolor="#E3E3F3">
<th>ADDRESSUNITNUMBER</th>
<td>0</td>
</tr><tr bgcolor="">
<th>ADDRESSSTREETNAME</th>
<td>Yio Chu Kang Road</td>
</tr><tr bgcolor="#E3E3F3">
<th>ADDRESSFLOORNUMBER</th>
<td>1</td>
</tr><tr bgcolor="">
<th>ADDRESSBUILDINGNAME</th>
<td></td>
</tr><tr bgcolor="#E3E3F3">
<th>ADDRESSBLOCKHOUSENUMBER</th>
<td>35</td>
</tr><tr bgcolor="">
<th>INC_CRC</th>
<td>6D75A32B9508CD57</td>
</tr><tr bgcolor="#E3E3F3">
<th>FMEL_UPD_D</th>
<td>20140417085527</td>
</tr><tr bgcolor="">
<th>NAME</th>
<td>Serangoon Sports and Recreation Centre</td>
</tr></table></center>]]></description>
<ExtendedData>
<SchemaData schemaUrl="#kml_schema_ft_AQUATICSG">
<SimpleData name="LANDYADDRESSPOINT">37680.0308</SimpleData>
<SimpleData name="LANDXADDRESSPOINT">32593.4639</SimpleData>
<SimpleData name="ADDRESSPOSTALCODE">545552</SimpleData>
<SimpleData name="HYPERLINK">http://www.icanbook.com.sg/</SimpleData>
<SimpleData name="DESCRIPTION">Facilities: 
1 Competition Pool, 1 Wading Pool 
Operating Hours: 
8.00am - 9.30pm (Thursday to Tuesday </SimpleData>
<SimpleData name="ADDRESSUNITNUMBER">0</SimpleData>
<SimpleData name="ADDRESSSTREETNAME">Yio Chu Kang Road</SimpleData>
<SimpleData name="ADDRESSFLOORNUMBER">1</SimpleData>
<SimpleData name="ADDRESSBLOCKHOUSENUMBER">35</SimpleData>
<SimpleData name="INC_CRC">6D75A32B9508CD57</SimpleData>
<SimpleData name="FMEL_UPD_D">20140417085527</SimpleData>
<SimpleData name="NAME">Serangoon Sports and Recreation Centre</SimpleData>
</SchemaData>
</ExtendedData>
<Point>
<coordinates>103.874593862669,1.35703898147822,0.0</coordinates>
</Point>
</Placemark>
<Placemark id="kml_10">
<name>kml_10</name>
<snippet> </snippet>
<description><![CDATA[<center><table><tr><th colspan='2' align='center'><em>Attributes</em></th></tr><tr bgcolor="#E3E3F3">
<th>LANDYADDRESSPOINT</th>
<td>37376.8476</td>
</tr><tr bgcolor="">
<th>LANDXADDRESSPOINT</th>
<td>39831.9024</td>
</tr><tr bgcolor="#E3E3F3">
<th>ADDRESSPOSTALCODE</th>
<td>529652</td>
</tr><tr bgcolor="">
<th>PHOTOURL</th>
<td></td>
</tr><tr bgcolor="#E3E3F3">
<th>HYPERLINK</th>
<td></td>
</tr><tr bgcolor="">
<th>DESCRIPTION</th>
<td>Facilities: 
1 Competition Pool, 1 Teaching pool, 1 Learner Pool, 1 Wading pool 
Operating Hours: 
8.00</td>
</tr><tr bgcolor="#E3E3F3">
<th>ADDRESSUNITNUMBER</th>
<td>0</td>
</tr><tr bgcolor="">
<th>ADDRESSSTREETNAME</th>
<td>Tampines Ave 5</td>
</tr><tr bgcolor="#E3E3F3">
<th>ADDRESSFLOORNUMBER</th>
<td>1</td>
</tr><tr bgcolor="">
<th>ADDRESSBUILDINGNAME</th>
<td></td>
</tr><tr bgcolor="#E3E3F3">
<th>ADDRESSBLOCKHOUSENUMBER</th>
<td>505</td>
</tr><tr bgcolor="">
<th>INC_CRC</th>
<td>3FAF4E754B645F72</td>
</tr><tr bgcolor="#E3E3F3">
<th>FMEL_UPD_D</th>
<td>20140417085527</td>
</tr><tr bgcolor="">
<th>NAME</th>
<td>Tampines Swimming Complex</td>
</tr></table></center>]]></description>
<ExtendedData>
<SchemaData schemaUrl="#kml_schema_ft_AQUATICSG">
<SimpleData name="LANDYADDRESSPOINT">37376.8476</SimpleData>
<SimpleData name="LANDXADDRESSPOINT">39831.9024</SimpleData>
<SimpleData name="ADDRESSPOSTALCODE">529652</SimpleData>
<SimpleData name="DESCRIPTION">Facilities: 
1 Competition Pool, 1 Teaching pool, 1 Learner Pool, 1 Wading pool 
Operating Hours: 
8.00</SimpleData>
<SimpleData name="ADDRESSUNITNUMBER">0</SimpleData>
<SimpleData name="ADDRESSSTREETNAME">Tampines Ave 5</SimpleData>
<SimpleData name="ADDRESSFLOORNUMBER">1</SimpleData>
<SimpleData name="ADDRESSBLOCKHOUSENUMBER">505</SimpleData>
<SimpleData name="INC_CRC">3FAF4E754B645F72</SimpleData>
<SimpleData name="FMEL_UPD_D">20140417085527</SimpleData>
<SimpleData name="NAME">Tampines Swimming Complex</SimpleData>
</SchemaData>
</ExtendedData>
<Point>
<coordinates>103.939635805039,1.35429510894432,0.0</coordinates>
</Point>
</Placemark>
<Placemark id="kml_11">
<name>kml_11</name>
<snippet> </snippet>
<description><![CDATA[<center><table><tr><th colspan='2' align='center'><em>Attributes</em></th></tr><tr bgcolor="#E3E3F3">
<th>LANDYADDRESSPOINT</th>
<td>46284.6853</td>
</tr><tr bgcolor="">
<th>LANDXADDRESSPOINT</th>
<td>21968.3415</td>
</tr><tr bgcolor="#E3E3F3">
<th>ADDRESSPOSTALCODE</th>
<td>738600</td>
</tr><tr bgcolor="">
<th>PHOTOURL</th>
<td></td>
</tr><tr bgcolor="#E3E3F3">
<th>HYPERLINK</th>
<td>http://www.icanbook.com.sg/</td>
</tr><tr bgcolor="">
<th>DESCRIPTION</th>
<td>Facilities: 
1 Competition Pool, 1 Teaching Pool, 1 Wading Pool 
Operating Hours: 
8.00am - 9.30pm (Thu</td>
</tr><tr bgcolor="#E3E3F3">
<th>ADDRESSUNITNUMBER</th>
<td>0</td>
</tr><tr bgcolor="">
<th>ADDRESSSTREETNAME</th>
<td>Woodlands St. 13</td>
</tr><tr bgcolor="#E3E3F3">
<th>ADDRESSFLOORNUMBER</th>
<td>1</td>
</tr><tr bgcolor="">
<th>ADDRESSBUILDINGNAME</th>
<td></td>
</tr><tr bgcolor="#E3E3F3">
<th>ADDRESSBLOCKHOUSENUMBER</th>
<td>3</td>
</tr><tr bgcolor="">
<th>INC_CRC</th>
<td>983A867BF951252C</td>
</tr><tr bgcolor="#E3E3F3">
<th>FMEL_UPD_D</th>
<td>20140417085527</td>
</tr><tr bgcolor="">
<th>NAME</th>
<td>Woodlands Sports and Recreation Centre</td>
</tr></table></center>]]></description>
<ExtendedData>
<SchemaData schemaUrl="#kml_schema_ft_AQUATICSG">
<SimpleData name="LANDYADDRESSPOINT">46284.6853</SimpleData>
<SimpleData name="LANDXADDRESSPOINT">21968.3415</SimpleData>
<SimpleData name="ADDRESSPOSTALCODE">738600</SimpleData>
<SimpleData name="HYPERLINK">http://www.icanbook.com.sg/</SimpleData>
<SimpleData name="DESCRIPTION">Facilities: 
1 Competition Pool, 1 Teaching Pool, 1 Wading Pool 
Operating Hours: 
8.00am - 9.30pm (Thu</SimpleData>
<SimpleData name="ADDRESSUNITNUMBER">0</SimpleData>
<SimpleData name="ADDRESSSTREETNAME">Woodlands St. 13</SimpleData>
<SimpleData name="ADDRESSFLOORNUMBER">1</SimpleData>
<SimpleData name="ADDRESSBLOCKHOUSENUMBER">3</SimpleData>
<SimpleData name="INC_CRC">983A867BF951252C</SimpleData>
<SimpleData name="FMEL_UPD_D">20140417085527</SimpleData>
<SimpleData name="NAME">Woodlands Sports and Recreation Centre</SimpleData>
</SchemaData>
</ExtendedData>
<Point>
<coordinates>103.779118395124,1.43485609421487,0.0</coordinates>
</Point>
</Placemark>
<Placemark id="kml_12">
<name>kml_12</name>
<snippet> </snippet>
<description><![CDATA[<center><table><tr><th colspan='2' align='center'><em>Attributes</em></th></tr><tr bgcolor="#E3E3F3">
<th>LANDYADDRESSPOINT</th>
<td>45091.2034</td>
</tr><tr bgcolor="">
<th>LANDXADDRESSPOINT</th>
<td>28041.597</td>
</tr><tr bgcolor="#E3E3F3">
<th>ADDRESSPOSTALCODE</th>
<td>769057</td>
</tr><tr bgcolor="">
<th>PHOTOURL</th>
<td></td>
</tr><tr bgcolor="#E3E3F3">
<th>HYPERLINK</th>
<td></td>
</tr><tr bgcolor="">
<th>DESCRIPTION</th>
<td>Operating Hours:  
8.00am - 9.30pm 
Tel: 6481 9054</td>
</tr><tr bgcolor="#E3E3F3">
<th>ADDRESSUNITNUMBER</th>
<td>0</td>
</tr><tr bgcolor="">
<th>ADDRESSSTREETNAME</th>
<td>Yishun Avenue 1</td>
</tr><tr bgcolor="#E3E3F3">
<th>ADDRESSFLOORNUMBER</th>
<td>1</td>
</tr><tr bgcolor="">
<th>ADDRESSBUILDINGNAME</th>
<td></td>
</tr><tr bgcolor="#E3E3F3">
<th>ADDRESSBLOCKHOUSENUMBER</th>
<td>351</td>
</tr><tr bgcolor="">
<th>INC_CRC</th>
<td>F7112183D5CA552C</td>
</tr><tr bgcolor="#E3E3F3">
<th>FMEL_UPD_D</th>
<td>20140417085527</td>
</tr><tr bgcolor="">
<th>NAME</th>
<td>Yishun Swimming Complex</td>
</tr></table></center>]]></description>
<ExtendedData>
<SchemaData schemaUrl="#kml_schema_ft_AQUATICSG">
<SimpleData name="LANDYADDRESSPOINT">45091.2034</SimpleData>
<SimpleData name="LANDXADDRESSPOINT">28041.597</SimpleData>
<SimpleData name="ADDRESSPOSTALCODE">769057</SimpleData>
<SimpleData name="DESCRIPTION">Operating Hours:  
8.00am - 9.30pm 
Tel: 6481 9054</SimpleData>
<SimpleData name="ADDRESSUNITNUMBER">0</SimpleData>
<SimpleData name="ADDRESSSTREETNAME">Yishun Avenue 1</SimpleData>
<SimpleData name="ADDRESSFLOORNUMBER">1</SimpleData>
<SimpleData name="ADDRESSBLOCKHOUSENUMBER">351</SimpleData>
<SimpleData name="INC_CRC">F7112183D5CA552C</SimpleData>
<SimpleData name="FMEL_UPD_D">20140417085527</SimpleData>
<SimpleData name="NAME">Yishun Swimming Complex</SimpleData>
</SchemaData>
</ExtendedData>
<Point>
<coordinates>103.833692365354,1.42406332202283,0.0</coordinates>
</Point>
</Placemark>
<Placemark id="kml_13">
<name>kml_13</name>
<snippet> </snippet>
<description><![CDATA[<center><table><tr><th colspan='2' align='center'><em>Attributes</em></th></tr><tr bgcolor="#E3E3F3">
<th>LANDYADDRESSPOINT</th>
<td>43498.700000000004</td>
</tr><tr bgcolor="">
<th>LANDXADDRESSPOINT</th>
<td>27785.58</td>
</tr><tr bgcolor="#E3E3F3">
<th>ADDRESSPOSTALCODE</th>
<td>769140</td>
</tr><tr bgcolor="">
<th>PHOTOURL</th>
<td></td>
</tr><tr bgcolor="#E3E3F3">
<th>HYPERLINK</th>
<td>http://www.water-venture.org.sg/</td>
</tr><tr bgcolor="">
<th>DESCRIPTION</th>
<td>Water-Venture</td>
</tr><tr bgcolor="#E3E3F3">
<th>ADDRESSUNITNUMBER</th>
<td>0</td>
</tr><tr bgcolor="">
<th>ADDRESSSTREETNAME</th>
<td>Yishun Avenue 1</td>
</tr><tr bgcolor="#E3E3F3">
<th>ADDRESSFLOORNUMBER</th>
<td>1</td>
</tr><tr bgcolor="">
<th>ADDRESSBUILDINGNAME</th>
<td></td>
</tr><tr bgcolor="#E3E3F3">
<th>ADDRESSBLOCKHOUSENUMBER</th>
<td>100</td>
</tr><tr bgcolor="">
<th>INC_CRC</th>
<td>3F622CBAE22E2E05</td>
</tr><tr bgcolor="#E3E3F3">
<th>FMEL_UPD_D</th>
<td>20140417085527</td>
</tr><tr bgcolor="">
<th>NAME</th>
<td>Water-Venture (Lower Seletar Reservoir)</td>
</tr></table></center>]]></description>
<ExtendedData>
<SchemaData schemaUrl="#kml_schema_ft_AQUATICSG">
<SimpleData name="LANDYADDRESSPOINT">43498.700000000004</SimpleData>
<SimpleData name="LANDXADDRESSPOINT">27785.58</SimpleData>
<SimpleData name="ADDRESSPOSTALCODE">769140</SimpleData>
<SimpleData name="HYPERLINK">http://www.water-venture.org.sg/</SimpleData>
<SimpleData name="DESCRIPTION">Water-Venture</SimpleData>
<SimpleData name="ADDRESSUNITNUMBER">0</SimpleData>
<SimpleData name="ADDRESSSTREETNAME">Yishun Avenue 1</SimpleData>
<SimpleData name="ADDRESSFLOORNUMBER">1</SimpleData>
<SimpleData name="ADDRESSBLOCKHOUSENUMBER">100</SimpleData>
<SimpleData name="INC_CRC">3F622CBAE22E2E05</SimpleData>
<SimpleData name="FMEL_UPD_D">20140417085527</SimpleData>
<SimpleData name="NAME">Water-Venture (Lower Seletar Reservoir)</SimpleData>
</SchemaData>
</ExtendedData>
<Point>
<coordinates>103.831391831712,1.40966129498616,0.0</coordinates>
</Point>
</Placemark>
<Placemark id="kml_14">
<name>kml_14</name>
<snippet> </snippet>
<description><![CDATA[<center><table><tr><th colspan='2' align='center'><em>Attributes</em></th></tr><tr bgcolor="#E3E3F3">
<th>LANDYADDRESSPOINT</th>
<td>36067.63</td>
</tr><tr bgcolor="">
<th>LANDXADDRESSPOINT</th>
<td>38832.85</td>
</tr><tr bgcolor="#E3E3F3">
<th>ADDRESSPOSTALCODE</th>
<td>208581</td>
</tr><tr bgcolor="">
<th>PHOTOURL</th>
<td></td>
</tr><tr bgcolor="#E3E3F3">
<th>HYPERLINK</th>
<td>http://www.water-venture.org.sg/</td>
</tr><tr bgcolor="">
<th>DESCRIPTION</th>
<td>Water-Venture 
Bedok Reservoir Road 
c/o 9 King George's Avenue Singapore 208581 
Tel: 9710 1697</td>
</tr><tr bgcolor="#E3E3F3">
<th>ADDRESSUNITNUMBER</th>
<td>0</td>
</tr><tr bgcolor="">
<th>ADDRESSSTREETNAME</th>
<td></td>
</tr><tr bgcolor="#E3E3F3">
<th>ADDRESSFLOORNUMBER</th>
<td>1</td>
</tr><tr bgcolor="">
<th>ADDRESSBUILDINGNAME</th>
<td></td>
</tr><tr bgcolor="#E3E3F3">
<th>ADDRESSBLOCKHOUSENUMBER</th>
<td></td>
</tr><tr bgcolor="">
<th>INC_CRC</th>
<td>C5EAC6FE48F9953E</td>
</tr><tr bgcolor="#E3E3F3">
<th>FMEL_UPD_D</th>
<td>20140417085527</td>
</tr><tr bgcolor="">
<th>NAME</th>
<td>Water-Venture (Bedok Reservoir)</td>
</tr></table></center>]]></description>
<ExtendedData>
<SchemaData schemaUrl="#kml_schema_ft_AQUATICSG">
<SimpleData name="LANDYADDRESSPOINT">36067.63</SimpleData>
<SimpleData name="LANDXADDRESSPOINT">38832.85</SimpleData>
<SimpleData name="ADDRESSPOSTALCODE">208581</SimpleData>
<SimpleData name="HYPERLINK">http://www.water-venture.org.sg/</SimpleData>
<SimpleData name="DESCRIPTION">Water-Venture 
Bedok Reservoir Road 
c/o 9 King George's Avenue Singapore 208581 
Tel: 9710 1697</SimpleData>
<SimpleData name="ADDRESSUNITNUMBER">0</SimpleData>
<SimpleData name="ADDRESSFLOORNUMBER">1</SimpleData>
<SimpleData name="INC_CRC">C5EAC6FE48F9953E</SimpleData>
<SimpleData name="FMEL_UPD_D">20140417085527</SimpleData>
<SimpleData name="NAME">Water-Venture (Bedok Reservoir)</SimpleData>
</SchemaData>
</ExtendedData>
<Point>
<coordinates>103.930658217801,1.34245540707367,0.0</coordinates>
</Point>
</Placemark>
<Placemark id="kml_15">
<name>kml_15</name>
<snippet> </snippet>
<description><![CDATA[<center><table><tr><th colspan='2' align='center'><em>Attributes</em></th></tr><tr bgcolor="#E3E3F3">
<th>LANDYADDRESSPOINT</th>
<td>41442.06</td>
</tr><tr bgcolor="">
<th>LANDXADDRESSPOINT</th>
<td>45423.18</td>
</tr><tr bgcolor="#E3E3F3">
<th>ADDRESSPOSTALCODE</th>
<td>498988</td>
</tr><tr bgcolor="">
<th>PHOTOURL</th>
<td></td>
</tr><tr bgcolor="#E3E3F3">
<th>HYPERLINK</th>
<td>http://www.water-venture.org.sg/</td>
</tr><tr bgcolor="">
<th>DESCRIPTION</th>
<td>Water-Venture</td>
</tr><tr bgcolor="#E3E3F3">
<th>ADDRESSUNITNUMBER</th>
<td>0</td>
</tr><tr bgcolor="">
<th>ADDRESSSTREETNAME</th>
<td>Nicoll Drive Changi Point</td>
</tr><tr bgcolor="#E3E3F3">
<th>ADDRESSFLOORNUMBER</th>
<td>1</td>
</tr><tr bgcolor="">
<th>ADDRESSBUILDINGNAME</th>
<td></td>
</tr><tr bgcolor="#E3E3F3">
<th>ADDRESSBLOCKHOUSENUMBER</th>
<td>285</td>
</tr><tr bgcolor="">
<th>INC_CRC</th>
<td>34235F2F5C1A69B6</td>
</tr><tr bgcolor="#E3E3F3">
<th>FMEL_UPD_D</th>
<td>20140417085527</td>
</tr><tr bgcolor="">
<th>NAME</th>
<td>Water-Venture (Changi)</td>
</tr></table></center>]]></description>
<ExtendedData>
<SchemaData schemaUrl="#kml_schema_ft_AQUATICSG">
<SimpleData name="LANDYADDRESSPOINT">41442.06</SimpleData>
<SimpleData name="LANDXADDRESSPOINT">45423.18</SimpleData>
<SimpleData name="ADDRESSPOSTALCODE">498988</SimpleData>
<SimpleData name="HYPERLINK">http://www.water-venture.org.sg/</SimpleData>
<SimpleData name="DESCRIPTION">Water-Venture</SimpleData>
<SimpleData name="ADDRESSUNITNUMBER">0</SimpleData>
<SimpleData name="ADDRESSSTREETNAME">Nicoll Drive Changi Point</SimpleData>
<SimpleData name="ADDRESSFLOORNUMBER">1</SimpleData>
<SimpleData name="ADDRESSBLOCKHOUSENUMBER">285</SimpleData>
<SimpleData name="INC_CRC">34235F2F5C1A69B6</SimpleData>
<SimpleData name="FMEL_UPD_D">20140417085527</SimpleData>
<SimpleData name="NAME">Water-Venture (Changi)</SimpleData>
</SchemaData>
</ExtendedData>
<Point>
<coordinates>103.989879302867,1.39105655777757,0.0</coordinates>
</Point>
</Placemark>
<Placemark id="kml_16">
<name>kml_16</name>
<snippet> </snippet>
<description><![CDATA[<center><table><tr><th colspan='2' align='center'><em>Attributes</em></th></tr><tr bgcolor="#E3E3F3">
<th>LANDYADDRESSPOINT</th>
<td>31784.780000000002</td>
</tr><tr bgcolor="">
<th>LANDXADDRESSPOINT</th>
<td>31816.100000000002</td>
</tr><tr bgcolor="#E3E3F3">
<th>ADDRESSPOSTALCODE</th>
<td>199587</td>
</tr><tr bgcolor="">
<th>PHOTOURL</th>
<td></td>
</tr><tr bgcolor="#E3E3F3">
<th>HYPERLINK</th>
<td>http://www.water-venture.org.sg/</td>
</tr><tr bgcolor="">
<th>DESCRIPTION</th>
<td>Water-Venture</td>
</tr><tr bgcolor="#E3E3F3">
<th>ADDRESSUNITNUMBER</th>
<td>0</td>
</tr><tr bgcolor="">
<th>ADDRESSSTREETNAME</th>
<td>Beach Road</td>
</tr><tr bgcolor="#E3E3F3">
<th>ADDRESSFLOORNUMBER</th>
<td>1</td>
</tr><tr bgcolor="">
<th>ADDRESSBUILDINGNAME</th>
<td></td>
</tr><tr bgcolor="#E3E3F3">
<th>ADDRESSBLOCKHOUSENUMBER</th>
<td>4876</td>
</tr><tr bgcolor="">
<th>INC_CRC</th>
<td>2CBD0215E28F4E62</td>
</tr><tr bgcolor="#E3E3F3">
<th>FMEL_UPD_D</th>
<td>20140417085527</td>
</tr><tr bgcolor="">
<th>NAME</th>
<td>Water-Venture (Kallang)</td>
</tr></table></center>]]></description>
<ExtendedData>
<SchemaData schemaUrl="#kml_schema_ft_AQUATICSG">
<SimpleData name="LANDYADDRESSPOINT">31784.780000000002</SimpleData>
<SimpleData name="LANDXADDRESSPOINT">31816.100000000002</SimpleData>
<SimpleData name="ADDRESSPOSTALCODE">199587</SimpleData>
<SimpleData name="HYPERLINK">http://www.water-venture.org.sg/</SimpleData>
<SimpleData name="DESCRIPTION">Water-Venture</SimpleData>
<SimpleData name="ADDRESSUNITNUMBER">0</SimpleData>
<SimpleData name="ADDRESSSTREETNAME">Beach Road</SimpleData>
<SimpleData name="ADDRESSFLOORNUMBER">1</SimpleData>
<SimpleData name="ADDRESSBLOCKHOUSENUMBER">4876</SimpleData>
<SimpleData name="INC_CRC">2CBD0215E28F4E62</SimpleData>
<SimpleData name="FMEL_UPD_D">20140417085527</SimpleData>
<SimpleData name="NAME">Water-Venture (Kallang)</SimpleData>
</SchemaData>
</ExtendedData>
<Point>
<coordinates>103.867608003726,1.30372454062563,0.0</coordinates>
</Point>
</Placemark>
<Placemark id="kml_17">
<name>kml_17</name>
<snippet> </snippet>
<description><![CDATA[<center><table><tr><th colspan='2' align='center'><em>Attributes</em></th></tr><tr bgcolor="#E3E3F3">
<th>LANDYADDRESSPOINT</th>
<td>40766.200000000004</td>
</tr><tr bgcolor="">
<th>LANDXADDRESSPOINT</th>
<td>40255.79</td>
</tr><tr bgcolor="#E3E3F3">
<th>ADDRESSPOSTALCODE</th>
<td>519926</td>
</tr><tr bgcolor="">
<th>PHOTOURL</th>
<td></td>
</tr><tr bgcolor="#E3E3F3">
<th>HYPERLINK</th>
<td>http://www.water-venture.org.sg/</td>
</tr><tr bgcolor="">
<th>DESCRIPTION</th>
<td>Water-Venture</td>
</tr><tr bgcolor="#E3E3F3">
<th>ADDRESSUNITNUMBER</th>
<td>0</td>
</tr><tr bgcolor="">
<th>ADDRESSSTREETNAME</th>
<td>Elias Road</td>
</tr><tr bgcolor="#E3E3F3">
<th>ADDRESSFLOORNUMBER</th>
<td>1</td>
</tr><tr bgcolor="">
<th>ADDRESSBUILDINGNAME</th>
<td></td>
</tr><tr bgcolor="#E3E3F3">
<th>ADDRESSBLOCKHOUSENUMBER</th>
<td>125</td>
</tr><tr bgcolor="">
<th>INC_CRC</th>
<td>E4B246CA9F9D626E</td>
</tr><tr bgcolor="#E3E3F3">
<th>FMEL_UPD_D</th>
<td>20140417085527</td>
</tr><tr bgcolor="">
<th>NAME</th>
<td>Water-Venture (Pasir Ris)</td>
</tr></table></center>]]></description>
<ExtendedData>
<SchemaData schemaUrl="#kml_schema_ft_AQUATICSG">
<SimpleData name="LANDYADDRESSPOINT">40766.200000000004</SimpleData>
<SimpleData name="LANDXADDRESSPOINT">40255.79</SimpleData>
<SimpleData name="ADDRESSPOSTALCODE">519926</SimpleData>
<SimpleData name="HYPERLINK">http://www.water-venture.org.sg/</SimpleData>
<SimpleData name="DESCRIPTION">Water-Venture</SimpleData>
<SimpleData name="ADDRESSUNITNUMBER">0</SimpleData>
<SimpleData name="ADDRESSSTREETNAME">Elias Road</SimpleData>
<SimpleData name="ADDRESSFLOORNUMBER">1</SimpleData>
<SimpleData name="ADDRESSBLOCKHOUSENUMBER">125</SimpleData>
<SimpleData name="INC_CRC">E4B246CA9F9D626E</SimpleData>
<SimpleData name="FMEL_UPD_D">20140417085527</SimpleData>
<SimpleData name="NAME">Water-Venture (Pasir Ris)</SimpleData>
</SchemaData>
</ExtendedData>
<Point>
<coordinates>103.943446101151,1.38494697356855,0.0</coordinates>
</Point>
</Placemark>
<Placemark id="kml_18">
<name>kml_18</name>
<snippet> </snippet>
<description><![CDATA[<center><table><tr><th colspan='2' align='center'><em>Attributes</em></th></tr><tr bgcolor="#E3E3F3">
<th>LANDYADDRESSPOINT</th>
<td>48969.16</td>
</tr><tr bgcolor="">
<th>LANDXADDRESSPOINT</th>
<td>29094.34</td>
</tr><tr bgcolor="#E3E3F3">
<th>ADDRESSPOSTALCODE</th>
<td>759057</td>
</tr><tr bgcolor="">
<th>PHOTOURL</th>
<td></td>
</tr><tr bgcolor="#E3E3F3">
<th>HYPERLINK</th>
<td>http://www.water-venture.org.sg/</td>
</tr><tr bgcolor="">
<th>DESCRIPTION</th>
<td>Water-Venture</td>
</tr><tr bgcolor="#E3E3F3">
<th>ADDRESSUNITNUMBER</th>
<td>0</td>
</tr><tr bgcolor="">
<th>ADDRESSSTREETNAME</th>
<td>Jalan Mempurong</td>
</tr><tr bgcolor="#E3E3F3">
<th>ADDRESSFLOORNUMBER</th>
<td>1</td>
</tr><tr bgcolor="">
<th>ADDRESSBUILDINGNAME</th>
<td></td>
</tr><tr bgcolor="#E3E3F3">
<th>ADDRESSBLOCKHOUSENUMBER</th>
<td>57</td>
</tr><tr bgcolor="">
<th>INC_CRC</th>
<td>00EEBDECCC897597</td>
</tr><tr bgcolor="#E3E3F3">
<th>FMEL_UPD_D</th>
<td>20140417085527</td>
</tr><tr bgcolor="">
<th>NAME</th>
<td>Water-Venture (Sembawang)</td>
</tr></table></center>]]></description>
<ExtendedData>
<SchemaData schemaUrl="#kml_schema_ft_AQUATICSG">
<SimpleData name="LANDYADDRESSPOINT">48969.16</SimpleData>
<SimpleData name="LANDXADDRESSPOINT">29094.34</SimpleData>
<SimpleData name="ADDRESSPOSTALCODE">759057</SimpleData>
<SimpleData name="HYPERLINK">http://www.water-venture.org.sg/</SimpleData>
<SimpleData name="DESCRIPTION">Water-Venture</SimpleData>
<SimpleData name="ADDRESSUNITNUMBER">0</SimpleData>
<SimpleData name="ADDRESSSTREETNAME">Jalan Mempurong</SimpleData>
<SimpleData name="ADDRESSFLOORNUMBER">1</SimpleData>
<SimpleData name="ADDRESSBLOCKHOUSENUMBER">57</SimpleData>
<SimpleData name="INC_CRC">00EEBDECCC897597</SimpleData>
<SimpleData name="FMEL_UPD_D">20140417085527</SimpleData>
<SimpleData name="NAME">Water-Venture (Sembawang)</SimpleData>
</SchemaData>
</ExtendedData>
<Point>
<coordinates>103.843152369033,1.45913413340653,0.0</coordinates>
</Point>
</Placemark>
<Placemark id="kml_19">
<name>kml_19</name>
<snippet> </snippet>
<description><![CDATA[<center><table><tr><th colspan='2' align='center'><em>Attributes</em></th></tr><tr bgcolor="#E3E3F3">
<th>LANDYADDRESSPOINT</th>
<td>38347.8672</td>
</tr><tr bgcolor="">
<th>LANDXADDRESSPOINT</th>
<td>29839.9412</td>
</tr><tr bgcolor="#E3E3F3">
<th>ADDRESSPOSTALCODE</th>
<td>569978</td>
</tr><tr bgcolor="">
<th>PHOTOURL</th>
<td></td>
</tr><tr bgcolor="#E3E3F3">
<th>HYPERLINK</th>
<td></td>
</tr><tr bgcolor="">
<th>DESCRIPTION</th>
<td>Facilities: 
1 Competition Pool, 1 Teaching pool, 1 Wading pool 
Operating Hours: 
8.00am - 9.30pm (Thu</td>
</tr><tr bgcolor="#E3E3F3">
<th>ADDRESSUNITNUMBER</th>
<td>0</td>
</tr><tr bgcolor="">
<th>ADDRESSSTREETNAME</th>
<td>Ang Mo Kio Ave 1</td>
</tr><tr bgcolor="#E3E3F3">
<th>ADDRESSFLOORNUMBER</th>
<td>1</td>
</tr><tr bgcolor="">
<th>ADDRESSBUILDINGNAME</th>
<td></td>
</tr><tr bgcolor="#E3E3F3">
<th>ADDRESSBLOCKHOUSENUMBER</th>
<td>1771</td>
</tr><tr bgcolor="">
<th>INC_CRC</th>
<td>CFA87360B1683F60</td>
</tr><tr bgcolor="#E3E3F3">
<th>FMEL_UPD_D</th>
<td>20140417085527</td>
</tr><tr bgcolor="">
<th>NAME</th>
<td>Ang Mo Kio Swimming Complex</td>
</tr></table></center>]]></description>
<ExtendedData>
<SchemaData schemaUrl="#kml_schema_ft_AQUATICSG">
<SimpleData name="LANDYADDRESSPOINT">38347.8672</SimpleData>
<SimpleData name="LANDXADDRESSPOINT">29839.9412</SimpleData>
<SimpleData name="ADDRESSPOSTALCODE">569978</SimpleData>
<SimpleData name="DESCRIPTION">Facilities: 
1 Competition Pool, 1 Teaching pool, 1 Wading pool 
Operating Hours: 
8.00am - 9.30pm (Thu</SimpleData>
<SimpleData name="ADDRESSUNITNUMBER">0</SimpleData>
<SimpleData name="ADDRESSSTREETNAME">Ang Mo Kio Ave 1</SimpleData>
<SimpleData name="ADDRESSFLOORNUMBER">1</SimpleData>
<SimpleData name="ADDRESSBLOCKHOUSENUMBER">1771</SimpleData>
<SimpleData name="INC_CRC">CFA87360B1683F60</SimpleData>
<SimpleData name="FMEL_UPD_D">20140417085527</SimpleData>
<SimpleData name="NAME">Ang Mo Kio Swimming Complex</SimpleData>
</SchemaData>
</ExtendedData>
<Point>
<coordinates>103.849851698772,1.36307895297343,0.0</coordinates>
</Point>
</Placemark>
<Placemark id="kml_20">
<name>kml_20</name>
<snippet> </snippet>
<description><![CDATA[<center><table><tr><th colspan='2' align='center'><em>Attributes</em></th></tr><tr bgcolor="#E3E3F3">
<th>LANDYADDRESSPOINT</th>
<td>34181.8081</td>
</tr><tr bgcolor="">
<th>LANDXADDRESSPOINT</th>
<td>39478.0774</td>
</tr><tr bgcolor="#E3E3F3">
<th>ADDRESSPOSTALCODE</th>
<td>467355</td>
</tr><tr bgcolor="">
<th>PHOTOURL</th>
<td></td>
</tr><tr bgcolor="#E3E3F3">
<th>HYPERLINK</th>
<td>http://www.icanbook.com.sg/</td>
</tr><tr bgcolor="">
<th>DESCRIPTION</th>
<td>Facilities: 
1 Competition Pool, 1 Teaching pool, 1 Wading pool, 1 Learners' pool 
Operating Hours: 
8.</td>
</tr><tr bgcolor="#E3E3F3">
<th>ADDRESSUNITNUMBER</th>
<td>0</td>
</tr><tr bgcolor="">
<th>ADDRESSSTREETNAME</th>
<td>New Upper Changi Road</td>
</tr><tr bgcolor="#E3E3F3">
<th>ADDRESSFLOORNUMBER</th>
<td>1</td>
</tr><tr bgcolor="">
<th>ADDRESSBUILDINGNAME</th>
<td></td>
</tr><tr bgcolor="#E3E3F3">
<th>ADDRESSBLOCKHOUSENUMBER</th>
<td>901</td>
</tr><tr bgcolor="">
<th>INC_CRC</th>
<td>AAE0BBF977B97B36</td>
</tr><tr bgcolor="#E3E3F3">
<th>FMEL_UPD_D</th>
<td>20140417085527</td>
</tr><tr bgcolor="">
<th>NAME</th>
<td>Bedok Sports and Recreation Centre</td>
</tr></table></center>]]></description>
<ExtendedData>
<SchemaData schemaUrl="#kml_schema_ft_AQUATICSG">
<SimpleData name="LANDYADDRESSPOINT">34181.8081</SimpleData>
<SimpleData name="LANDXADDRESSPOINT">39478.0774</SimpleData>
<SimpleData name="ADDRESSPOSTALCODE">467355</SimpleData>
<SimpleData name="HYPERLINK">http://www.icanbook.com.sg/</SimpleData>
<SimpleData name="DESCRIPTION">Facilities: 
1 Competition Pool, 1 Teaching pool, 1 Wading pool, 1 Learners' pool 
Operating Hours: 
8.</SimpleData>
<SimpleData name="ADDRESSUNITNUMBER">0</SimpleData>
<SimpleData name="ADDRESSSTREETNAME">New Upper Changi Road</SimpleData>
<SimpleData name="ADDRESSFLOORNUMBER">1</SimpleData>
<SimpleData name="ADDRESSBLOCKHOUSENUMBER">901</SimpleData>
<SimpleData name="INC_CRC">AAE0BBF977B97B36</SimpleData>
<SimpleData name="FMEL_UPD_D">20140417085527</SimpleData>
<SimpleData name="NAME">Bedok Sports and Recreation Centre</SimpleData>
</SchemaData>
</ExtendedData>
<Point>
<coordinates>103.936455255937,1.32540049090327,0.0</coordinates>
</Point>
</Placemark>
<Placemark id="kml_21">
<name>kml_21</name>
<snippet> </snippet>
<description><![CDATA[<center><table><tr><th colspan='2' align='center'><em>Attributes</em></th></tr><tr bgcolor="#E3E3F3">
<th>LANDYADDRESSPOINT</th>
<td>36275.0401</td>
</tr><tr bgcolor="">
<th>LANDXADDRESSPOINT</th>
<td>18499.8779</td>
</tr><tr bgcolor="#E3E3F3">
<th>ADDRESSPOSTALCODE</th>
<td>659581</td>
</tr><tr bgcolor="">
<th>PHOTOURL</th>
<td></td>
</tr><tr bgcolor="#E3E3F3">
<th>HYPERLINK</th>
<td></td>
</tr><tr bgcolor="">
<th>DESCRIPTION</th>
<td>Facilities: 
1 Competition Pool, 1 Teaching pool, 1 Wading pool 
Operating Hours: 
8.00am - 9.30pm (Thu</td>
</tr><tr bgcolor="#E3E3F3">
<th>ADDRESSUNITNUMBER</th>
<td>0</td>
</tr><tr bgcolor="">
<th>ADDRESSSTREETNAME</th>
<td>Bukit Batok St. 22</td>
</tr><tr bgcolor="#E3E3F3">
<th>ADDRESSFLOORNUMBER</th>
<td>1</td>
</tr><tr bgcolor="">
<th>ADDRESSBUILDINGNAME</th>
<td></td>
</tr><tr bgcolor="#E3E3F3">
<th>ADDRESSBLOCKHOUSENUMBER</th>
<td>2</td>
</tr><tr bgcolor="">
<th>INC_CRC</th>
<td>DCB4AB3677AFBD69</td>
</tr><tr bgcolor="#E3E3F3">
<th>FMEL_UPD_D</th>
<td>20140417085527</td>
</tr><tr bgcolor="">
<th>NAME</th>
<td>Bukit Batok Swimming Complex</td>
</tr></table></center>]]></description>
<ExtendedData>
<SchemaData schemaUrl="#kml_schema_ft_AQUATICSG">
<SimpleData name="LANDYADDRESSPOINT">36275.0401</SimpleData>
<SimpleData name="LANDXADDRESSPOINT">18499.8779</SimpleData>
<SimpleData name="ADDRESSPOSTALCODE">659581</SimpleData>
<SimpleData name="DESCRIPTION">Facilities: 
1 Competition Pool, 1 Teaching pool, 1 Wading pool 
Operating Hours: 
8.00am - 9.30pm (Thu</SimpleData>
<SimpleData name="ADDRESSUNITNUMBER">0</SimpleData>
<SimpleData name="ADDRESSSTREETNAME">Bukit Batok St. 22</SimpleData>
<SimpleData name="ADDRESSFLOORNUMBER">1</SimpleData>
<SimpleData name="ADDRESSBLOCKHOUSENUMBER">2</SimpleData>
<SimpleData name="INC_CRC">DCB4AB3677AFBD69</SimpleData>
<SimpleData name="FMEL_UPD_D">20140417085527</SimpleData>
<SimpleData name="NAME">Bukit Batok Swimming Complex</SimpleData>
</SchemaData>
</ExtendedData>
<Point>
<coordinates>103.747954223108,1.34433159736422,0.0</coordinates>
</Point>
</Placemark>
<Placemark id="kml_22">
<name>kml_22</name>
<snippet> </snippet>
<description><![CDATA[<center><table><tr><th colspan='2' align='center'><em>Attributes</em></th></tr><tr bgcolor="#E3E3F3">
<th>LANDYADDRESSPOINT</th>
<td>32583.4576</td>
</tr><tr bgcolor="">
<th>LANDXADDRESSPOINT</th>
<td>23527.855199999998</td>
</tr><tr bgcolor="#E3E3F3">
<th>ADDRESSPOSTALCODE</th>
<td>278938</td>
</tr><tr bgcolor="">
<th>PHOTOURL</th>
<td></td>
</tr><tr bgcolor="#E3E3F3">
<th>HYPERLINK</th>
<td></td>
</tr><tr bgcolor="">
<th>DESCRIPTION</th>
<td>Facilities: 
1 Competition Pool, 1 Teaching pool, 1 Wading pool 
Operating Hours: 
8.00am - 9.30pm (Thu</td>
</tr><tr bgcolor="#E3E3F3">
<th>ADDRESSUNITNUMBER</th>
<td>0</td>
</tr><tr bgcolor="">
<th>ADDRESSSTREETNAME</th>
<td>Holland Drive</td>
</tr><tr bgcolor="#E3E3F3">
<th>ADDRESSFLOORNUMBER</th>
<td>1</td>
</tr><tr bgcolor="">
<th>ADDRESSBUILDINGNAME</th>
<td></td>
</tr><tr bgcolor="#E3E3F3">
<th>ADDRESSBLOCKHOUSENUMBER</th>
<td>76</td>
</tr><tr bgcolor="">
<th>INC_CRC</th>
<td>411EE4911C562F72</td>
</tr><tr bgcolor="#E3E3F3">
<th>FMEL_UPD_D</th>
<td>20140417085527</td>
</tr><tr bgcolor="">
<th>NAME</th>
<td>Buona Vista Swimming Complex</td>
</tr></table></center>]]></description>
<ExtendedData>
<SchemaData schemaUrl="#kml_schema_ft_AQUATICSG">
<SimpleData name="LANDYADDRESSPOINT">32583.4576</SimpleData>
<SimpleData name="LANDXADDRESSPOINT">23527.855199999998</SimpleData>
<SimpleData name="ADDRESSPOSTALCODE">278938</SimpleData>
<SimpleData name="DESCRIPTION">Facilities: 
1 Competition Pool, 1 Teaching pool, 1 Wading pool 
Operating Hours: 
8.00am - 9.30pm (Thu</SimpleData>
<SimpleData name="ADDRESSUNITNUMBER">0</SimpleData>
<SimpleData name="ADDRESSSTREETNAME">Holland Drive</SimpleData>
<SimpleData name="ADDRESSFLOORNUMBER">1</SimpleData>
<SimpleData name="ADDRESSBLOCKHOUSENUMBER">76</SimpleData>
<SimpleData name="INC_CRC">411EE4911C562F72</SimpleData>
<SimpleData name="FMEL_UPD_D">20140417085527</SimpleData>
<SimpleData name="NAME">Buona Vista Swimming Complex</SimpleData>
</SchemaData>
</ExtendedData>
<Point>
<coordinates>103.793134174577,1.31094740934534,0.0</coordinates>
</Point>
</Placemark>
<Placemark id="kml_23">
<name>kml_23</name>
<snippet> </snippet>
<description><![CDATA[<center><table><tr><th colspan='2' align='center'><em>Attributes</em></th></tr><tr bgcolor="#E3E3F3">
<th>LANDYADDRESSPOINT</th>
<td>41385.9199</td>
</tr><tr bgcolor="">
<th>LANDXADDRESSPOINT</th>
<td>18507.8403</td>
</tr><tr bgcolor="#E3E3F3">
<th>ADDRESSPOSTALCODE</th>
<td>689236</td>
</tr><tr bgcolor="">
<th>PHOTOURL</th>
<td></td>
</tr><tr bgcolor="#E3E3F3">
<th>HYPERLINK</th>
<td>http://www.icanbook.com.sg/</td>
</tr><tr bgcolor="">
<th>DESCRIPTION</th>
<td>Facilities: 
1 Competition Pool, 1 Toddler's Pool, 1 Wave Pool, 1 Interactive Pool, 1 Water slide, 1 Ri</td>
</tr><tr bgcolor="#E3E3F3">
<th>ADDRESSUNITNUMBER</th>
<td>0</td>
</tr><tr bgcolor="">
<th>ADDRESSSTREETNAME</th>
<td>Choa Chu Kang St 53</td>
</tr><tr bgcolor="#E3E3F3">
<th>ADDRESSFLOORNUMBER</th>
<td>1</td>
</tr><tr bgcolor="">
<th>ADDRESSBUILDINGNAME</th>
<td></td>
</tr><tr bgcolor="#E3E3F3">
<th>ADDRESSBLOCKHOUSENUMBER</th>
<td>1</td>
</tr><tr bgcolor="">
<th>INC_CRC</th>
<td>DD91D8ADE7BA0833</td>
</tr><tr bgcolor="#E3E3F3">
<th>FMEL_UPD_D</th>
<td>20140417085527</td>
</tr><tr bgcolor="">
<th>NAME</th>
<td>Choa Chu Kang Sports and Recreation Centre</td>
</tr></table></center>]]></description>
<ExtendedData>
<SchemaData schemaUrl="#kml_schema_ft_AQUATICSG">
<SimpleData name="LANDYADDRESSPOINT">41385.9199</SimpleData>
<SimpleData name="LANDXADDRESSPOINT">18507.8403</SimpleData>
<SimpleData name="ADDRESSPOSTALCODE">689236</SimpleData>
<SimpleData name="HYPERLINK">http://www.icanbook.com.sg/</SimpleData>
<SimpleData name="DESCRIPTION">Facilities: 
1 Competition Pool, 1 Toddler's Pool, 1 Wave Pool, 1 Interactive Pool, 1 Water slide, 1 Ri</SimpleData>
<SimpleData name="ADDRESSUNITNUMBER">0</SimpleData>
<SimpleData name="ADDRESSSTREETNAME">Choa Chu Kang St 53</SimpleData>
<SimpleData name="ADDRESSFLOORNUMBER">1</SimpleData>
<SimpleData name="ADDRESSBLOCKHOUSENUMBER">1</SimpleData>
<SimpleData name="INC_CRC">DD91D8ADE7BA0833</SimpleData>
<SimpleData name="FMEL_UPD_D">20140417085527</SimpleData>
<SimpleData name="NAME">Choa Chu Kang Sports and Recreation Centre</SimpleData>
</SchemaData>
</ExtendedData>
<Point>
<coordinates>103.748024138266,1.39055252087672,0.0</coordinates>
</Point>
</Placemark>
<Placemark id="kml_24">
<name>kml_24</name>
<snippet> </snippet>
<description><![CDATA[<center><table><tr><th colspan='2' align='center'><em>Attributes</em></th></tr><tr bgcolor="#E3E3F3">
<th>LANDYADDRESSPOINT</th>
<td>32527.2802</td>
</tr><tr bgcolor="">
<th>LANDXADDRESSPOINT</th>
<td>20488.7812</td>
</tr><tr bgcolor="#E3E3F3">
<th>ADDRESSPOSTALCODE</th>
<td>129908</td>
</tr><tr bgcolor="">
<th>PHOTOURL</th>
<td></td>
</tr><tr bgcolor="#E3E3F3">
<th>HYPERLINK</th>
<td>http://www.icanbook.com.sg/</td>
</tr><tr bgcolor="">
<th>DESCRIPTION</th>
<td>Facilities: 
1 Competition Pool, 1 Teaching pool, 1 Wading pool 
Operating Hours: 
8.00am - 9.30pm (Thu</td>
</tr><tr bgcolor="#E3E3F3">
<th>ADDRESSUNITNUMBER</th>
<td>0</td>
</tr><tr bgcolor="">
<th>ADDRESSSTREETNAME</th>
<td>Clementi Ave 3</td>
</tr><tr bgcolor="#E3E3F3">
<th>ADDRESSFLOORNUMBER</th>
<td>1</td>
</tr><tr bgcolor="">
<th>ADDRESSBUILDINGNAME</th>
<td></td>
</tr><tr bgcolor="#E3E3F3">
<th>ADDRESSBLOCKHOUSENUMBER</th>
<td>520</td>
</tr><tr bgcolor="">
<th>INC_CRC</th>
<td>06C3C0E6A6E9C909</td>
</tr><tr bgcolor="#E3E3F3">
<th>FMEL_UPD_D</th>
<td>20140417085527</td>
</tr><tr bgcolor="">
<th>NAME</th>
<td>Clementi Sports and Recreation Centre</td>
</tr></table></center>]]></description>
<ExtendedData>
<SchemaData schemaUrl="#kml_schema_ft_AQUATICSG">
<SimpleData name="LANDYADDRESSPOINT">32527.2802</SimpleData>
<SimpleData name="LANDXADDRESSPOINT">20488.7812</SimpleData>
<SimpleData name="ADDRESSPOSTALCODE">129908</SimpleData>
<SimpleData name="HYPERLINK">http://www.icanbook.com.sg/</SimpleData>
<SimpleData name="DESCRIPTION">Facilities: 
1 Competition Pool, 1 Teaching pool, 1 Wading pool 
Operating Hours: 
8.00am - 9.30pm (Thu</SimpleData>
<SimpleData name="ADDRESSUNITNUMBER">0</SimpleData>
<SimpleData name="ADDRESSSTREETNAME">Clementi Ave 3</SimpleData>
<SimpleData name="ADDRESSFLOORNUMBER">1</SimpleData>
<SimpleData name="ADDRESSBLOCKHOUSENUMBER">520</SimpleData>
<SimpleData name="INC_CRC">06C3C0E6A6E9C909</SimpleData>
<SimpleData name="FMEL_UPD_D">20140417085527</SimpleData>
<SimpleData name="NAME">Clementi Sports and Recreation Centre</SimpleData>
</SchemaData>
</ExtendedData>
<Point>
<coordinates>103.765826634595,1.31043877009911,0.0</coordinates>
</Point>
</Placemark>
<Placemark id="kml_25">
<name>kml_25</name>
<snippet> </snippet>
<description><![CDATA[<center><table><tr><th colspan='2' align='center'><em>Attributes</em></th></tr><tr bgcolor="#E3E3F3">
<th>LANDYADDRESSPOINT</th>
<td>33393.0995</td>
</tr><tr bgcolor="">
<th>LANDXADDRESSPOINT</th>
<td>26403.1349</td>
</tr><tr bgcolor="#E3E3F3">
<th>ADDRESSPOSTALCODE</th>
<td>259366</td>
</tr><tr bgcolor="">
<th>PHOTOURL</th>
<td></td>
</tr><tr bgcolor="#E3E3F3">
<th>HYPERLINK</th>
<td>http://www.icanbook.com.sg/</td>
</tr><tr bgcolor="">
<th>DESCRIPTION</th>
<td>Facilities: 
1 Competition Pool, 1 Teaching Pool 
Operating Hours: 
8.00am - 9.30pm (Thursday to Tuesda</td>
</tr><tr bgcolor="#E3E3F3">
<th>ADDRESSUNITNUMBER</th>
<td>0</td>
</tr><tr bgcolor="">
<th>ADDRESSSTREETNAME</th>
<td>Evans Road</td>
</tr><tr bgcolor="#E3E3F3">
<th>ADDRESSFLOORNUMBER</th>
<td>1</td>
</tr><tr bgcolor="">
<th>ADDRESSBUILDINGNAME</th>
<td></td>
</tr><tr bgcolor="#E3E3F3">
<th>ADDRESSBLOCKHOUSENUMBER</th>
<td>21</td>
</tr><tr bgcolor="">
<th>INC_CRC</th>
<td>7156ABFC90D873FE</td>
</tr><tr bgcolor="#E3E3F3">
<th>FMEL_UPD_D</th>
<td>20140417085527</td>
</tr><tr bgcolor="">
<th>NAME</th>
<td>Co-Curricular Activities Branch (CCAB) Sports Fac</td>
</tr></table></center>]]></description>
<ExtendedData>
<SchemaData schemaUrl="#kml_schema_ft_AQUATICSG">
<SimpleData name="LANDYADDRESSPOINT">33393.0995</SimpleData>
<SimpleData name="LANDXADDRESSPOINT">26403.1349</SimpleData>
<SimpleData name="ADDRESSPOSTALCODE">259366</SimpleData>
<SimpleData name="HYPERLINK">http://www.icanbook.com.sg/</SimpleData>
<SimpleData name="DESCRIPTION">Facilities: 
1 Competition Pool, 1 Teaching Pool 
Operating Hours: 
8.00am - 9.30pm (Thursday to Tuesda</SimpleData>
<SimpleData name="ADDRESSUNITNUMBER">0</SimpleData>
<SimpleData name="ADDRESSSTREETNAME">Evans Road</SimpleData>
<SimpleData name="ADDRESSFLOORNUMBER">1</SimpleData>
<SimpleData name="ADDRESSBLOCKHOUSENUMBER">21</SimpleData>
<SimpleData name="INC_CRC">7156ABFC90D873FE</SimpleData>
<SimpleData name="FMEL_UPD_D">20140417085527</SimpleData>
<SimpleData name="NAME">Co-Curricular Activities Branch (CCAB) Sports Fac</SimpleData>
</SchemaData>
</ExtendedData>
<Point>
<coordinates>103.818969923681,1.31826980789399,0.0</coordinates>
</Point>
</Placemark>
<Placemark id="kml_26">
<name>kml_26</name>
<snippet> </snippet>
<description><![CDATA[<center><table><tr><th colspan='2' align='center'><em>Attributes</em></th></tr><tr bgcolor="#E3E3F3">
<th>LANDYADDRESSPOINT</th>
<td>30191.067</td>
</tr><tr bgcolor="">
<th>LANDXADDRESSPOINT</th>
<td>26442.1801</td>
</tr><tr bgcolor="#E3E3F3">
<th>ADDRESSPOSTALCODE</th>
<td>158790</td>
</tr><tr bgcolor="">
<th>PHOTOURL</th>
<td></td>
</tr><tr bgcolor="#E3E3F3">
<th>HYPERLINK</th>
<td>http://www.icanbook.com.sg/</td>
</tr><tr bgcolor="">
<th>DESCRIPTION</th>
<td>Facilities: 
1 Competition Pool, 1 Teaching pool, 1 Wading pool 
Operating Hours: 
8.00am - 9.30pm (Thu</td>
</tr><tr bgcolor="#E3E3F3">
<th>ADDRESSUNITNUMBER</th>
<td>0</td>
</tr><tr bgcolor="">
<th>ADDRESSSTREETNAME</th>
<td>Tiong Bahru Road</td>
</tr><tr bgcolor="#E3E3F3">
<th>ADDRESSFLOORNUMBER</th>
<td>1</td>
</tr><tr bgcolor="">
<th>ADDRESSBUILDINGNAME</th>
<td></td>
</tr><tr bgcolor="#E3E3F3">
<th>ADDRESSBLOCKHOUSENUMBER</th>
<td>900</td>
</tr><tr bgcolor="">
<th>INC_CRC</th>
<td>993DFD5650B66B9A</td>
</tr><tr bgcolor="#E3E3F3">
<th>FMEL_UPD_D</th>
<td>20140417085527</td>
</tr><tr bgcolor="">
<th>NAME</th>
<td>Delta Sports and Recreation Centre</td>
</tr></table></center>]]></description>
<ExtendedData>
<SchemaData schemaUrl="#kml_schema_ft_AQUATICSG">
<SimpleData name="LANDYADDRESSPOINT">30191.067</SimpleData>
<SimpleData name="LANDXADDRESSPOINT">26442.1801</SimpleData>
<SimpleData name="ADDRESSPOSTALCODE">158790</SimpleData>
<SimpleData name="HYPERLINK">http://www.icanbook.com.sg/</SimpleData>
<SimpleData name="DESCRIPTION">Facilities: 
1 Competition Pool, 1 Teaching pool, 1 Wading pool 
Operating Hours: 
8.00am - 9.30pm (Thu</SimpleData>
<SimpleData name="ADDRESSUNITNUMBER">0</SimpleData>
<SimpleData name="ADDRESSSTREETNAME">Tiong Bahru Road</SimpleData>
<SimpleData name="ADDRESSFLOORNUMBER">1</SimpleData>
<SimpleData name="ADDRESSBLOCKHOUSENUMBER">900</SimpleData>
<SimpleData name="INC_CRC">993DFD5650B66B9A</SimpleData>
<SimpleData name="FMEL_UPD_D">20140417085527</SimpleData>
<SimpleData name="NAME">Delta Sports and Recreation Centre</SimpleData>
</SchemaData>
</ExtendedData>
<Point>
<coordinates>103.819320925013,1.28931175675376,0.0</coordinates>
</Point>
</Placemark>
<Placemark id="kml_27">
<name>kml_27</name>
<snippet> </snippet>
<description><![CDATA[<center><table><tr><th colspan='2' align='center'><em>Attributes</em></th></tr><tr bgcolor="#E3E3F3">
<th>LANDYADDRESSPOINT</th>
<td>33689.9297</td>
</tr><tr bgcolor="">
<th>LANDXADDRESSPOINT</th>
<td>34047.6429</td>
</tr><tr bgcolor="#E3E3F3">
<th>ADDRESSPOSTALCODE</th>
<td>389862</td>
</tr><tr bgcolor="">
<th>PHOTOURL</th>
<td></td>
</tr><tr bgcolor="#E3E3F3">
<th>HYPERLINK</th>
<td></td>
</tr><tr bgcolor="">
<th>DESCRIPTION</th>
<td>Facilities: 
1 Competition Pool, 1 Teaching pool, 1 Wading pool 
Operating Hours: 
8.00am - 9.30pm (Thu</td>
</tr><tr bgcolor="#E3E3F3">
<th>ADDRESSUNITNUMBER</th>
<td>0</td>
</tr><tr bgcolor="">
<th>ADDRESSSTREETNAME</th>
<td>Aljunied Crescent</td>
</tr><tr bgcolor="#E3E3F3">
<th>ADDRESSFLOORNUMBER</th>
<td>1</td>
</tr><tr bgcolor="">
<th>ADDRESSBUILDINGNAME</th>
<td></td>
</tr><tr bgcolor="#E3E3F3">
<th>ADDRESSBLOCKHOUSENUMBER</th>
<td>601</td>
</tr><tr bgcolor="">
<th>INC_CRC</th>
<td>7B5A5431B96C0AB2</td>
</tr><tr bgcolor="#E3E3F3">
<th>FMEL_UPD_D</th>
<td>20140417085527</td>
</tr><tr bgcolor="">
<th>NAME</th>
<td>Geylang East Swimming Complex</td>
</tr></table></center>]]></description>
<ExtendedData>
<SchemaData schemaUrl="#kml_schema_ft_AQUATICSG">
<SimpleData name="LANDYADDRESSPOINT">33689.9297</SimpleData>
<SimpleData name="LANDXADDRESSPOINT">34047.6429</SimpleData>
<SimpleData name="ADDRESSPOSTALCODE">389862</SimpleData>
<SimpleData name="DESCRIPTION">Facilities: 
1 Competition Pool, 1 Teaching pool, 1 Wading pool 
Operating Hours: 
8.00am - 9.30pm (Thu</SimpleData>
<SimpleData name="ADDRESSUNITNUMBER">0</SimpleData>
<SimpleData name="ADDRESSSTREETNAME">Aljunied Crescent</SimpleData>
<SimpleData name="ADDRESSFLOORNUMBER">1</SimpleData>
<SimpleData name="ADDRESSBLOCKHOUSENUMBER">601</SimpleData>
<SimpleData name="INC_CRC">7B5A5431B96C0AB2</SimpleData>
<SimpleData name="FMEL_UPD_D">20140417085527</SimpleData>
<SimpleData name="NAME">Geylang East Swimming Complex</SimpleData>
</SchemaData>
</ExtendedData>
<Point>
<coordinates>103.887659816209,1.32095367943092,0.0</coordinates>
</Point>
</Placemark>
<Placemark id="kml_28">
<name>kml_28</name>
<snippet> </snippet>
<description><![CDATA[<center><table><tr><th colspan='2' align='center'><em>Attributes</em></th></tr><tr bgcolor="#E3E3F3">
<th>LANDYADDRESSPOINT</th>
<td>39103.3685</td>
</tr><tr bgcolor="">
<th>LANDXADDRESSPOINT</th>
<td>33984.6457</td>
</tr><tr bgcolor="#E3E3F3">
<th>ADDRESSPOSTALCODE</th>
<td>538830</td>
</tr><tr bgcolor="">
<th>PHOTOURL</th>
<td></td>
</tr><tr bgcolor="#E3E3F3">
<th>HYPERLINK</th>
<td>http://www.icanbook.com.sg/</td>
</tr><tr bgcolor="">
<th>DESCRIPTION</th>
<td>Facilities: 
1 Competition Pool, 1 Teaching pool, 1 Wading pool 
Operating Hours: 
8.00am - 9.30pm (Thu</td>
</tr><tr bgcolor="#E3E3F3">
<th>ADDRESSUNITNUMBER</th>
<td>0</td>
</tr><tr bgcolor="">
<th>ADDRESSSTREETNAME</th>
<td>Hougang Ave 4</td>
</tr><tr bgcolor="#E3E3F3">
<th>ADDRESSFLOORNUMBER</th>
<td>1</td>
</tr><tr bgcolor="">
<th>ADDRESSBUILDINGNAME</th>
<td></td>
</tr><tr bgcolor="#E3E3F3">
<th>ADDRESSBLOCKHOUSENUMBER</th>
<td>95</td>
</tr><tr bgcolor="">
<th>INC_CRC</th>
<td>31FE34D8A8B4E8AE</td>
</tr><tr bgcolor="#E3E3F3">
<th>FMEL_UPD_D</th>
<td>20140417085527</td>
</tr><tr bgcolor="">
<th>NAME</th>
<td>Hougang Sports and Recreation Centre</td>
</tr></table></center>]]></description>
<ExtendedData>
<SchemaData schemaUrl="#kml_schema_ft_AQUATICSG">
<SimpleData name="LANDYADDRESSPOINT">39103.3685</SimpleData>
<SimpleData name="LANDXADDRESSPOINT">33984.6457</SimpleData>
<SimpleData name="ADDRESSPOSTALCODE">538830</SimpleData>
<SimpleData name="HYPERLINK">http://www.icanbook.com.sg/</SimpleData>
<SimpleData name="DESCRIPTION">Facilities: 
1 Competition Pool, 1 Teaching pool, 1 Wading pool 
Operating Hours: 
8.00am - 9.30pm (Thu</SimpleData>
<SimpleData name="ADDRESSUNITNUMBER">0</SimpleData>
<SimpleData name="ADDRESSSTREETNAME">Hougang Ave 4</SimpleData>
<SimpleData name="ADDRESSFLOORNUMBER">1</SimpleData>
<SimpleData name="ADDRESSBLOCKHOUSENUMBER">95</SimpleData>
<SimpleData name="INC_CRC">31FE34D8A8B4E8AE</SimpleData>
<SimpleData name="FMEL_UPD_D">20140417085527</SimpleData>
<SimpleData name="NAME">Hougang Sports and Recreation Centre</SimpleData>
</SchemaData>
</ExtendedData>
<Point>
<coordinates>103.887094825238,1.36991088722857,0.0</coordinates>
</Point>
</Placemark>
<Placemark id="kml_29">
<name>kml_29</name>
<snippet> </snippet>
<description><![CDATA[<center><table><tr><th colspan='2' align='center'><em>Attributes</em></th></tr><tr bgcolor="#E3E3F3">
<th>LANDYADDRESSPOINT</th>
<td>32573.2101</td>
</tr><tr bgcolor="">
<th>LANDXADDRESSPOINT</th>
<td>30965.1294</td>
</tr><tr bgcolor="#E3E3F3">
<th>ADDRESSPOSTALCODE</th>
<td>207542</td>
</tr><tr bgcolor="">
<th>PHOTOURL</th>
<td></td>
</tr><tr bgcolor="#E3E3F3">
<th>HYPERLINK</th>
<td></td>
</tr><tr bgcolor="">
<th>DESCRIPTION</th>
<td>Facilities: 
1 Competition Pool, 1 Teaching pool, 1 Wading pool 
Operating Hours: 
8.00am - 9.30pm (Thu</td>
</tr><tr bgcolor="#E3E3F3">
<th>ADDRESSUNITNUMBER</th>
<td>0</td>
</tr><tr bgcolor="">
<th>ADDRESSSTREETNAME</th>
<td>Tyrwhitt Road</td>
</tr><tr bgcolor="#E3E3F3">
<th>ADDRESSFLOORNUMBER</th>
<td>1</td>
</tr><tr bgcolor="">
<th>ADDRESSBUILDINGNAME</th>
<td></td>
</tr><tr bgcolor="#E3E3F3">
<th>ADDRESSBLOCKHOUSENUMBER</th>
<td>100</td>
</tr><tr bgcolor="">
<th>INC_CRC</th>
<td>A2202F53BA6F579F</td>
</tr><tr bgcolor="#E3E3F3">
<th>FMEL_UPD_D</th>
<td>20140417085527</td>
</tr><tr bgcolor="">
<th>NAME</th>
<td>Jalan Besar Sports and Recreation Centre</td>
</tr></table></center>]]></description>
<ExtendedData>
<SchemaData schemaUrl="#kml_schema_ft_AQUATICSG">
<SimpleData name="LANDYADDRESSPOINT">32573.2101</SimpleData>
<SimpleData name="LANDXADDRESSPOINT">30965.1294</SimpleData>
<SimpleData name="ADDRESSPOSTALCODE">207542</SimpleData>
<SimpleData name="DESCRIPTION">Facilities: 
1 Competition Pool, 1 Teaching pool, 1 Wading pool 
Operating Hours: 
8.00am - 9.30pm (Thu</SimpleData>
<SimpleData name="ADDRESSUNITNUMBER">0</SimpleData>
<SimpleData name="ADDRESSSTREETNAME">Tyrwhitt Road</SimpleData>
<SimpleData name="ADDRESSFLOORNUMBER">1</SimpleData>
<SimpleData name="ADDRESSBLOCKHOUSENUMBER">100</SimpleData>
<SimpleData name="INC_CRC">A2202F53BA6F579F</SimpleData>
<SimpleData name="FMEL_UPD_D">20140417085527</SimpleData>
<SimpleData name="NAME">Jalan Besar Sports and Recreation Centre</SimpleData>
</SchemaData>
</ExtendedData>
<Point>
<coordinates>103.859961714822,1.31085491681637,0.0</coordinates>
</Point>
</Placemark>
<Placemark id="kml_30">
<name>kml_30</name>
<snippet> </snippet>
<description><![CDATA[<center><table><tr><th colspan='2' align='center'><em>Attributes</em></th></tr><tr bgcolor="#E3E3F3">
<th>LANDYADDRESSPOINT</th>
<td>36547.3578</td>
</tr><tr bgcolor="">
<th>LANDXADDRESSPOINT</th>
<td>16406.7607</td>
</tr><tr bgcolor="#E3E3F3">
<th>ADDRESSPOSTALCODE</th>
<td>609517</td>
</tr><tr bgcolor="">
<th>PHOTOURL</th>
<td></td>
</tr><tr bgcolor="#E3E3F3">
<th>HYPERLINK</th>
<td>http://www.icanbook.com.sg/</td>
</tr><tr bgcolor="">
<th>DESCRIPTION</th>
<td>Facilities: 
1 Competition Pool, 1 Wave Pool, 1 Lazy River, 3 Water Slides, 1 Jacuzzi, 1 Kiddy Fun Stat</td>
</tr><tr bgcolor="#E3E3F3">
<th>ADDRESSUNITNUMBER</th>
<td>0</td>
</tr><tr bgcolor="">
<th>ADDRESSSTREETNAME</th>
<td>Jurong East Street 31</td>
</tr><tr bgcolor="#E3E3F3">
<th>ADDRESSFLOORNUMBER</th>
<td>1</td>
</tr><tr bgcolor="">
<th>ADDRESSBUILDINGNAME</th>
<td></td>
</tr><tr bgcolor="#E3E3F3">
<th>ADDRESSBLOCKHOUSENUMBER</th>
<td>21</td>
</tr><tr bgcolor="">
<th>INC_CRC</th>
<td>0A960FEBE4FFB35E</td>
</tr><tr bgcolor="#E3E3F3">
<th>FMEL_UPD_D</th>
<td>20140417085527</td>
</tr><tr bgcolor="">
<th>NAME</th>
<td>Jurong East Sports and Recreation Centre</td>
</tr></table></center>]]></description>
<ExtendedData>
<SchemaData schemaUrl="#kml_schema_ft_AQUATICSG">
<SimpleData name="LANDYADDRESSPOINT">36547.3578</SimpleData>
<SimpleData name="LANDXADDRESSPOINT">16406.7607</SimpleData>
<SimpleData name="ADDRESSPOSTALCODE">609517</SimpleData>
<SimpleData name="HYPERLINK">http://www.icanbook.com.sg/</SimpleData>
<SimpleData name="DESCRIPTION">Facilities: 
1 Competition Pool, 1 Wave Pool, 1 Lazy River, 3 Water Slides, 1 Jacuzzi, 1 Kiddy Fun Stat</SimpleData>
<SimpleData name="ADDRESSUNITNUMBER">0</SimpleData>
<SimpleData name="ADDRESSSTREETNAME">Jurong East Street 31</SimpleData>
<SimpleData name="ADDRESSFLOORNUMBER">1</SimpleData>
<SimpleData name="ADDRESSBLOCKHOUSENUMBER">21</SimpleData>
<SimpleData name="INC_CRC">0A960FEBE4FFB35E</SimpleData>
<SimpleData name="FMEL_UPD_D">20140417085527</SimpleData>
<SimpleData name="NAME">Jurong East Sports and Recreation Centre</SimpleData>
</SchemaData>
</ExtendedData>
<Point>
<coordinates>103.729146210769,1.34679360312397,0.0</coordinates>
</Point>
</Placemark>
<Placemark id="kml_31">
<name>kml_31</name>
<snippet> </snippet>
<description><![CDATA[<center><table><tr><th colspan='2' align='center'><em>Attributes</em></th></tr><tr bgcolor="#E3E3F3">
<th>LANDYADDRESSPOINT</th>
<td>39605.3699</td>
</tr><tr bgcolor="">
<th>LANDXADDRESSPOINT</th>
<td>41188.0362</td>
</tr><tr bgcolor="#E3E3F3">
<th>ADDRESSPOSTALCODE</th>
<td>519640</td>
</tr><tr bgcolor="">
<th>PHOTOURL</th>
<td></td>
</tr><tr bgcolor="#E3E3F3">
<th>HYPERLINK</th>
<td>http://www.icanbook.com.sg/</td>
</tr><tr bgcolor="">
<th>DESCRIPTION</th>
<td>Facilities: 
1 Competition Pool, 1 Learner Pool, 1 Wading Pool, 1 Toddlers Pool, 2 Slides, 1 Jacuzzi Po</td>
</tr><tr bgcolor="#E3E3F3">
<th>ADDRESSUNITNUMBER</th>
<td>0</td>
</tr><tr bgcolor="">
<th>ADDRESSSTREETNAME</th>
<td>Pasir Ris Central</td>
</tr><tr bgcolor="#E3E3F3">
<th>ADDRESSFLOORNUMBER</th>
<td>1</td>
</tr><tr bgcolor="">
<th>ADDRESSBUILDINGNAME</th>
<td></td>
</tr><tr bgcolor="#E3E3F3">
<th>ADDRESSBLOCKHOUSENUMBER</th>
<td>120</td>
</tr><tr bgcolor="">
<th>INC_CRC</th>
<td>706331879B24522A</td>
</tr><tr bgcolor="#E3E3F3">
<th>FMEL_UPD_D</th>
<td>20140417085527</td>
</tr><tr bgcolor="">
<th>NAME</th>
<td>Pasir Ris Sports and Recreation Centre</td>
</tr></table></center>]]></description>
<ExtendedData>
<SchemaData schemaUrl="#kml_schema_ft_AQUATICSG">
<SimpleData name="LANDYADDRESSPOINT">39605.3699</SimpleData>
<SimpleData name="LANDXADDRESSPOINT">41188.0362</SimpleData>
<SimpleData name="ADDRESSPOSTALCODE">519640</SimpleData>
<SimpleData name="HYPERLINK">http://www.icanbook.com.sg/</SimpleData>
<SimpleData name="DESCRIPTION">Facilities: 
1 Competition Pool, 1 Learner Pool, 1 Wading Pool, 1 Toddlers Pool, 2 Slides, 1 Jacuzzi Po</SimpleData>
<SimpleData name="ADDRESSUNITNUMBER">0</SimpleData>
<SimpleData name="ADDRESSSTREETNAME">Pasir Ris Central</SimpleData>
<SimpleData name="ADDRESSFLOORNUMBER">1</SimpleData>
<SimpleData name="ADDRESSBLOCKHOUSENUMBER">120</SimpleData>
<SimpleData name="INC_CRC">706331879B24522A</SimpleData>
<SimpleData name="FMEL_UPD_D">20140417085527</SimpleData>
<SimpleData name="NAME">Pasir Ris Sports and Recreation Centre</SimpleData>
</SchemaData>
</ExtendedData>
<Point>
<coordinates>103.951822505812,1.3744484576709,0.0</coordinates>
</Point>
</Placemark>
<Placemark id="kml_32">
<name>kml_32</name>
<snippet> </snippet>
<description><![CDATA[<center><table><tr><th colspan='2' align='center'><em>Attributes</em></th></tr><tr bgcolor="#E3E3F3">
<th>LANDYADDRESSPOINT</th>
<td>40388.8725</td>
</tr><tr bgcolor="">
<th>LANDXADDRESSPOINT</th>
<td>29494.5119</td>
</tr><tr bgcolor="#E3E3F3">
<th>ADDRESSPOSTALCODE</th>
<td>569771</td>
</tr><tr bgcolor="">
<th>PHOTOURL</th>
<td></td>
</tr><tr bgcolor="#E3E3F3">
<th>HYPERLINK</th>
<td>http://www.icanbook.com.sg/</td>
</tr><tr bgcolor="">
<th>DESCRIPTION</th>
<td>Facilities: 
1 Competition Pool, 1 Teaching Pool, 1 Wading Pool 
Operating Hours: 
8.00am - 9.30pm (Thu</td>
</tr><tr bgcolor="#E3E3F3">
<th>ADDRESSUNITNUMBER</th>
<td>0</td>
</tr><tr bgcolor="">
<th>ADDRESSSTREETNAME</th>
<td>Ang Mo Kio Ave 9</td>
</tr><tr bgcolor="#E3E3F3">
<th>ADDRESSFLOORNUMBER</th>
<td>1</td>
</tr><tr bgcolor="">
<th>ADDRESSBUILDINGNAME</th>
<td></td>
</tr><tr bgcolor="#E3E3F3">
<th>ADDRESSBLOCKHOUSENUMBER</th>
<td>202</td>
</tr><tr bgcolor="">
<th>INC_CRC</th>
<td>63736BFA9C4BD94F</td>
</tr><tr bgcolor="#E3E3F3">
<th>FMEL_UPD_D</th>
<td>20140417085527</td>
</tr><tr bgcolor="">
<th>NAME</th>
<td>Yio Chu Kang Sports and Recreation Centre</td>
</tr></table></center>]]></description>
<ExtendedData>
<SchemaData schemaUrl="#kml_schema_ft_AQUATICSG">
<SimpleData name="LANDYADDRESSPOINT">40388.8725</SimpleData>
<SimpleData name="LANDXADDRESSPOINT">29494.5119</SimpleData>
<SimpleData name="ADDRESSPOSTALCODE">569771</SimpleData>
<SimpleData name="HYPERLINK">http://www.icanbook.com.sg/</SimpleData>
<SimpleData name="DESCRIPTION">Facilities: 
1 Competition Pool, 1 Teaching Pool, 1 Wading Pool 
Operating Hours: 
8.00am - 9.30pm (Thu</SimpleData>
<SimpleData name="ADDRESSUNITNUMBER">0</SimpleData>
<SimpleData name="ADDRESSSTREETNAME">Ang Mo Kio Ave 9</SimpleData>
<SimpleData name="ADDRESSFLOORNUMBER">1</SimpleData>
<SimpleData name="ADDRESSBLOCKHOUSENUMBER">202</SimpleData>
<SimpleData name="INC_CRC">63736BFA9C4BD94F</SimpleData>
<SimpleData name="FMEL_UPD_D">20140417085527</SimpleData>
<SimpleData name="NAME">Yio Chu Kang Sports and Recreation Centre</SimpleData>
</SchemaData>
</ExtendedData>
<Point>
<coordinates>103.846747885065,1.38153709452424,0.0</coordinates>
</Point>
</Placemark>
</Folder>
</Document></kml>
